{"type": "FeatureCollection", "_meta": {"description": "The roads the 28 May 2023 evacuation alerts name, so a household on one is ordered by that alert whichever community polygon contains it. EA-3 named Pockwock Rd and Lucasville Rd, EA-4 named Voyageur Way, St George Blvd, McCabe Lake and Maplewood.", "source": "OpenStreetMap named highway ways via the Overpass API", "retrieved": "2026-08-11", "licence": "ODbL 1.0, (c) OpenStreetMap contributors", "excluded": "Hammonds Plains Road is the artery through the whole area and is named in no broadcast, so it is not an ordering road."}, "features": [{"type": "Feature", "properties": {"name": "Lucasville Road", "wave": "EA-3"}, "geometry": {"type": "LineString", "coordinates": [[-63.711966, 44.781833], [-63.712247, 44.781829], [-63.712677, 44.781817], [-63.71295, 44.781789], [-63.713093, 44.781755], [-63.713232, 44.781714], [-63.713441, 44.781626], [-63.7136, 44.781514], [-63.713773, 44.781374], [-63.714011, 44.781157]]}}, {"type": "Feature", "properties": {"name": "Voyageur Way", "wave": "EA-4"}, "geometry": {"type": "LineString", "coordinates": [[-63.769835, 44.71631], [-63.770057, 44.716129], [-63.770304, 44.715875], [-63.770404, 44.715738], [-63.770565, 44.715518], [-63.770754, 44.715181], [-63.770858, 44.714871], [-63.770871, 44.714833], [-63.770904, 44.714681], [-63.770969, 44.714384], [-63.77099, 44.714236], [-63.771038, 44.713901], [-63.771067, 44.713702], [-63.771114, 44.713377], [-63.771132, 44.713255], [-63.771164, 44.713084], [-63.771203, 44.713], [-63.771332, 44.712794], [-63.771353, 44.71276], [-63.771392, 44.712693], [-63.77153, 44.712457], [-63.771583, 44.712365], [-63.771796, 44.712001], [-63.771861, 44.711843], [-63.771881, 44.711714], [-63.771887, 44.711547], [-63.771876, 44.71146]]}}, {"type": "Feature", "properties": {"name": "St George Boulevard", "wave": "EA-4"}, "geometry": {"type": "LineString", "coordinates": [[-63.766116, 44.707934], [-63.766193, 44.707854], [-63.766231, 44.707818], [-63.766271, 44.707777], [-63.766308, 44.707728], [-63.766526, 44.707415], [-63.766604, 44.707298], [-63.766655, 44.707227], [-63.76677, 44.707074], [-63.766822, 44.706984], [-63.766887, 44.706895], [-63.767015, 44.706698], [-63.767067, 44.70659], [-63.767119, 44.706492], [-63.76717, 44.706365], [-63.76721, 44.706249], [-63.767264, 44.705998], [-63.767292, 44.705745], [-63.767294, 44.705628], [-63.767282, 44.705493], [-63.767272, 44.705367], [-63.767271, 44.70534], [-63.76726, 44.705241], [-63.767264, 44.70498], [-63.767278, 44.704855], [-63.767305, 44.70472], [-63.767332, 44.704594], [-63.767371, 44.704477], [-63.767411, 44.704352], [-63.767463, 44.704234], [-63.767544, 44.704013], [-63.767581, 44.703893], [-63.767594, 44.703839], [-63.767607, 44.703777], [-63.767634, 44.70366], [-63.767637, 44.70339], [-63.767626, 44.703237], [-63.767615, 44.703093], [-63.767579, 44.70294], [-63.767543, 44.702795], [-63.767421, 44.702506], [-63.767347, 44.702371], [-63.767274, 44.702244], [-63.767187, 44.702109], [-63.767074, 44.701991], [-63.766975, 44.701874], [-63.766863, 44.701756], [-63.766763, 44.701638], [-63.766465, 44.701313], [-63.76629, 44.701095], [-63.766155, 44.70086], [-63.766106, 44.700735], [-63.766057, 44.700617], [-63.766021, 44.7005], [-63.765948, 44.700248], [-63.765924, 44.700121], [-63.765915, 44.70001], [-63.765913, 44.699995], [-63.765915, 44.699923], [-63.765917, 44.699752], [-63.765945, 44.6995], [-63.765999, 44.699267]]}}, {"type": "Feature", "properties": {"name": "Pockwock Road", "wave": "EA-3"}, "geometry": {"type": "LineString", "coordinates": [[-63.79274, 44.735706], [-63.792771, 44.735794], [-63.792806, 44.735886], [-63.792858, 44.735966], [-63.792945, 44.736039], [-63.792958, 44.736047], [-63.793202, 44.736204], [-63.793484, 44.736366], [-63.793951, 44.736621], [-63.794375, 44.736857], [-63.7947, 44.737051], [-63.794993, 44.737237], [-63.795648, 44.737698], [-63.796406, 44.738207], [-63.796718, 44.738413], [-63.797771, 44.739072], [-63.79899, 44.739816], [-63.799143, 44.739913], [-63.799963, 44.740438], [-63.800439, 44.740729], [-63.801103, 44.741132], [-63.801953, 44.741646], [-63.802827, 44.742182]]}}, {"type": "Feature", "properties": {"name": "Voyageur Way", "wave": "EA-4"}, "geometry": {"type": "LineString", "coordinates": [[-63.750464, 44.729227], [-63.750505, 44.729188], [-63.750522, 44.729171], [-63.750559, 44.729135], [-63.750598, 44.729099], [-63.750644, 44.729054], [-63.750695, 44.729001], [-63.750751, 44.728947], [-63.750815, 44.728885], [-63.750968, 44.728741], [-63.751033, 44.72867], [-63.75116, 44.728545], [-63.751211, 44.728491], [-63.75125, 44.728447], [-63.751276, 44.728357], [-63.751277, 44.728312]]}}, {"type": "Feature", "properties": {"name": "Voyageur Way", "wave": "EA-4"}, "geometry": {"type": "LineString", "coordinates": [[-63.751277, 44.728312], [-63.751219, 44.72833], [-63.751146, 44.728362], [-63.751083, 44.728412], [-63.751003, 44.72849], [-63.750938, 44.728552], [-63.750866, 44.72862], [-63.750792, 44.728669], [-63.750717, 44.728738], [-63.750642, 44.728822], [-63.750587, 44.728884], [-63.750533, 44.728929], [-63.750499, 44.728964], [-63.750473, 44.728991], [-63.750317, 44.729143]]}}, {"type": "Feature", "properties": {"name": "Lucasville Road", "wave": "EA-3"}, "geometry": {"type": "LineString", "coordinates": [[-63.747348, 44.741728], [-63.747366, 44.741713], [-63.747482, 44.741606], [-63.747954, 44.741168], [-63.748657, 44.740543], [-63.748782, 44.740429], [-63.749257, 44.739998], [-63.749283, 44.73998], [-63.749487, 44.739793], [-63.74969, 44.739638], [-63.750048, 44.739364], [-63.750245, 44.739208], [-63.750444, 44.739052], [-63.75052, 44.738999], [-63.751488, 44.738348], [-63.752545, 44.737688], [-63.752672, 44.737608], [-63.753244, 44.737253], [-63.753296, 44.737217], [-63.754149, 44.736628], [-63.755311, 44.735655], [-63.756051, 44.735039], [-63.756536, 44.734628], [-63.757213, 44.734057], [-63.757481, 44.733833], [-63.758119, 44.733306], [-63.758655, 44.73286], [-63.75901, 44.732533]]}}, {"type": "Feature", "properties": {"name": "Maplewood Drive", "wave": "EA-4"}, "geometry": {"type": "LineString", "coordinates": [[-63.735982, 44.656794], [-63.73621, 44.656718], [-63.736527, 44.656597], [-63.736828, 44.656459], [-63.737245, 44.656216], [-63.738344, 44.65558], [-63.739354, 44.654992], [-63.739614, 44.654842]]}}, {"type": "Feature", "properties": {"name": "Pockwock Road", "wave": "EA-3"}, "geometry": {"type": "LineString", "coordinates": [[-63.84194, 44.754516], [-63.842848, 44.754615], [-63.843076, 44.754643], [-63.843328, 44.754672], [-63.844034, 44.754747], [-63.845321, 44.754917], [-63.846204, 44.755057], [-63.846797, 44.755129], [-63.847048, 44.755161], [-63.847137, 44.75517], [-63.847553, 44.755218], [-63.847654, 44.755227], [-63.848928, 44.755379], [-63.849786, 44.755483], [-63.850189, 44.75553], [-63.850644, 44.755587], [-63.8513, 44.755662], [-63.851589, 44.755691], [-63.851716, 44.75571], [-63.852641, 44.755849], [-63.853247, 44.755939], [-63.853343, 44.755953], [-63.853443, 44.755971], [-63.853645, 44.75599], [-63.85497, 44.756178], [-63.855108, 44.756188], [-63.855247, 44.756207], [-63.855385, 44.756235], [-63.855474, 44.756262], [-63.855512, 44.756271], [-63.85565, 44.756307], [-63.855776, 44.756353], [-63.855889, 44.756408], [-63.856177, 44.756653], [-63.856276, 44.756761], [-63.856339, 44.756825], [-63.856389, 44.756897], [-63.856489, 44.757041], [-63.856525, 44.757114], [-63.856549, 44.757195], [-63.856669, 44.757408], [-63.856859, 44.757746], [-63.857391, 44.758748], [-63.857562, 44.759052], [-63.857589, 44.7591], [-63.857689, 44.759271], [-63.857911, 44.759677], [-63.858023, 44.759885], [-63.858097, 44.760039], [-63.858146, 44.760192], [-63.858158, 44.760228], [-63.858182, 44.760345], [-63.858264, 44.760912], [-63.8583, 44.761038], [-63.858312, 44.761165], [-63.858323, 44.7613], [-63.858322, 44.761345], [-63.858308, 44.761425], [-63.858306, 44.761695], [-63.858266, 44.761957], [-63.858252, 44.762037], [-63.858238, 44.762109], [-63.858212, 44.76219], [-63.858173, 44.762262], [-63.858146, 44.762352], [-63.858109, 44.762432], [-63.858006, 44.762594], [-63.857363, 44.763616], [-63.857298, 44.763706], [-63.856703, 44.764963], [-63.856665, 44.765043], [-63.856651, 44.765115], [-63.856636, 44.765152]]}}, {"type": "Feature", "properties": {"name": "Lucasville Road", "wave": "EA-3"}, "geometry": {"type": "LineString", "coordinates": [[-63.730823, 44.756993], [-63.731571, 44.756827], [-63.732027, 44.756721], [-63.732737, 44.756556], [-63.733078, 44.756477], [-63.733332, 44.756407], [-63.733574, 44.756318], [-63.733801, 44.756221], [-63.734398, 44.755972], [-63.734475, 44.755946], [-63.734779, 44.755822], [-63.73544, 44.755548], [-63.735605, 44.755486], [-63.735757, 44.755423], [-63.735898, 44.755343], [-63.736038, 44.755255], [-63.736166, 44.755165], [-63.736408, 44.754942], [-63.736665, 44.754647]]}}, {"type": "Feature", "properties": {"name": "Lucasville Road", "wave": "EA-3"}, "geometry": {"type": "LineString", "coordinates": [[-63.71413, 44.776248], [-63.713982, 44.775921], [-63.713908, 44.775757], [-63.713884, 44.775704], [-63.713847, 44.775632], [-63.713823, 44.775559], [-63.713799, 44.775479], [-63.713787, 44.775407], [-63.713789, 44.775326], [-63.713789, 44.775254], [-63.713803, 44.775172], [-63.713816, 44.775091], [-63.71383, 44.775055], [-63.713843, 44.77502], [-63.713881, 44.774948], [-63.713921, 44.774876], [-63.713972, 44.774805], [-63.714024, 44.774742]]}}, {"type": "Feature", "properties": {"name": "Lucasville Road", "wave": "EA-3"}, "geometry": {"type": "LineString", "coordinates": [[-63.714024, 44.774742], [-63.714139, 44.774599], [-63.7142, 44.774539], [-63.714322, 44.774443]]}}, {"type": "Feature", "properties": {"name": "Lucasville Road", "wave": "EA-3"}, "geometry": {"type": "LineString", "coordinates": [[-63.714559, 44.780827], [-63.714967, 44.780661], [-63.715043, 44.780625], [-63.71512, 44.780582], [-63.715196, 44.780537], [-63.715259, 44.780493], [-63.715324, 44.780439], [-63.7154, 44.780368], [-63.715465, 44.780287], [-63.715516, 44.780216], [-63.715568, 44.780134], [-63.715607, 44.780045], [-63.715646, 44.779965], [-63.715659, 44.779902], [-63.715672, 44.779874], [-63.71569, 44.779733], [-63.715687, 44.779671], [-63.715688, 44.779613], [-63.715666, 44.779397], [-63.715595, 44.779109], [-63.715496, 44.778829], [-63.715362, 44.778549], [-63.715225, 44.778359], [-63.715014, 44.77807], [-63.714853, 44.777844], [-63.714717, 44.777636], [-63.714593, 44.777428], [-63.714496, 44.777212], [-63.714484, 44.777175], [-63.714438, 44.777062], [-63.71413, 44.776248]]}}, {"type": "Feature", "properties": {"name": "Lucasville Road", "wave": "EA-3"}, "geometry": {"type": "LineString", "coordinates": [[-63.714011, 44.781157], [-63.71405, 44.781128], [-63.714147, 44.781056], [-63.714247, 44.78098], [-63.714559, 44.780827]]}}, {"type": "Feature", "properties": {"name": "McCabe Lake Drive", "wave": "EA-4"}, "geometry": {"type": "LineString", "coordinates": [[-63.762041, 44.789217], [-63.761827, 44.78918], [-63.761322, 44.789142], [-63.761129, 44.789078], [-63.760863, 44.788989], [-63.760382, 44.788719], [-63.760059, 44.788364], [-63.75967, 44.787877], [-63.759397, 44.787662], [-63.758962, 44.787504], [-63.758427, 44.787353], [-63.758221, 44.787295], [-63.7575, 44.787093], [-63.756963, 44.786929], [-63.756513, 44.78667], [-63.756253, 44.786434], [-63.75606, 44.786179], [-63.75593, 44.786], [-63.75547, 44.784911]]}}, {"type": "Feature", "properties": {"name": "McCabe Lake Drive", "wave": "EA-4"}, "geometry": {"type": "LineString", "coordinates": [[-63.742554, 44.776889], [-63.742413, 44.776919], [-63.741018, 44.777049], [-63.740157, 44.777185], [-63.739969, 44.777215], [-63.739374, 44.777379], [-63.738652, 44.777632], [-63.737735, 44.777997], [-63.736888, 44.778313], [-63.736383, 44.778507], [-63.736217, 44.778563]]}}, {"type": "Feature", "properties": {"name": "Maplewood Drive", "wave": "EA-4"}, "geometry": {"type": "LineString", "coordinates": [[-63.739614, 44.654842], [-63.740693, 44.654237], [-63.741951, 44.653525], [-63.741963, 44.653517], [-63.741977, 44.653511], [-63.741992, 44.653508], [-63.742005, 44.653506]]}}, {"type": "Feature", "properties": {"name": "Pockwock Road", "wave": "EA-3"}, "geometry": {"type": "LineString", "coordinates": [[-63.854936, 44.776157], [-63.855187, 44.77632], [-63.855275, 44.776357], [-63.855301, 44.776374], [-63.855325, 44.776384], [-63.855602, 44.776521], [-63.855652, 44.776538], [-63.855727, 44.776575], [-63.855765, 44.776593], [-63.855803, 44.776612], [-63.85584, 44.776621], [-63.855878, 44.776639], [-63.855929, 44.776648], [-63.855967, 44.776649], [-63.856018, 44.776658], [-63.856106, 44.776658], [-63.856143, 44.776667], [-63.856207, 44.776658], [-63.85622, 44.776659], [-63.85627, 44.776659], [-63.856397, 44.776642], [-63.856459, 44.776624], [-63.856599, 44.776589], [-63.856751, 44.776562], [-63.857069, 44.776403], [-63.857209, 44.77634], [-63.857246, 44.776314], [-63.857272, 44.776296], [-63.85731, 44.776278], [-63.857349, 44.776251], [-63.857386, 44.776234], [-63.857424, 44.776224], [-63.857476, 44.776207], [-63.857514, 44.776198], [-63.857564, 44.776189]]}}, {"type": "Feature", "properties": {"name": "Pockwock Road", "wave": "EA-3"}, "geometry": {"type": "LineString", "coordinates": [[-63.812623, 44.747883], [-63.812723, 44.747936], [-63.813068, 44.748139], [-63.81367, 44.748485], [-63.813876, 44.748588]]}}, {"type": "Feature", "properties": {"name": "Pockwock Road", "wave": "EA-3"}, "geometry": {"type": "LineString", "coordinates": [[-63.856882, 44.766025], [-63.856905, 44.766088], [-63.856942, 44.76626], [-63.856946, 44.766334], [-63.856952, 44.766431], [-63.856951, 44.766602], [-63.856824, 44.767744], [-63.856795, 44.76805], [-63.856716, 44.768355], [-63.856612, 44.768651], [-63.856521, 44.768948], [-63.856454, 44.769245], [-63.856445, 44.769394], [-63.856376, 44.770522], [-63.856274, 44.771075], [-63.856229, 44.77126], [-63.856177, 44.771385], [-63.856112, 44.771511], [-63.856036, 44.771627], [-63.855959, 44.771735], [-63.855855, 44.771842], [-63.855741, 44.77194], [-63.855627, 44.77203], [-63.855499, 44.772119], [-63.855398, 44.772172], [-63.855309, 44.772226], [-63.85513, 44.772351], [-63.855054, 44.772422], [-63.854989, 44.772494], [-63.854964, 44.772557], [-63.854938, 44.77262], [-63.854911, 44.772683], [-63.854898, 44.772746], [-63.854898, 44.772809], [-63.854895, 44.772971], [-63.85487, 44.773051], [-63.854856, 44.773132], [-63.854818, 44.773204], [-63.854779, 44.773285], [-63.85474, 44.773357], [-63.854496, 44.773662], [-63.854278, 44.773975], [-63.854265, 44.774002], [-63.854253, 44.774038], [-63.854239, 44.774065], [-63.854238, 44.774101], [-63.854239, 44.774128], [-63.854238, 44.774191], [-63.85425, 44.774218], [-63.854262, 44.774254], [-63.854288, 44.774281], [-63.8543, 44.774317], [-63.854324, 44.774344], [-63.854362, 44.774371], [-63.854387, 44.774399], [-63.854412, 44.774417], [-63.854425, 44.774426], [-63.854462, 44.774444], [-63.854752, 44.774626], [-63.854763, 44.774635], [-63.854813, 44.77468], [-63.854876, 44.774735], [-63.854926, 44.774797], [-63.854964, 44.774861], [-63.854988, 44.774915], [-63.855013, 44.77496], [-63.855048, 44.775122], [-63.855049, 44.775158], [-63.855048, 44.775203], [-63.855047, 44.775284], [-63.855034, 44.77532], [-63.855008, 44.775365], [-63.854996, 44.775401], [-63.854943, 44.775508], [-63.854917, 44.775572], [-63.854904, 44.775617], [-63.854865, 44.775742], [-63.854863, 44.77585], [-63.854875, 44.775949], [-63.854899, 44.776058], [-63.854936, 44.776157]]}}, {"type": "Feature", "properties": {"name": "McCabe Lake Drive", "wave": "EA-4"}, "geometry": {"type": "LineString", "coordinates": [[-63.769825, 44.791907], [-63.770002, 44.792122], [-63.770225, 44.792307], [-63.770675, 44.792577], [-63.772373, 44.793546], [-63.773174, 44.793984]]}}, {"type": "Feature", "properties": {"name": "McCabe Lake Drive", "wave": "EA-4"}, "geometry": {"type": "LineString", "coordinates": [[-63.769825, 44.791907], [-63.769798, 44.791787], [-63.769809, 44.791641], [-63.769833, 44.791466], [-63.770015, 44.790937], [-63.770449, 44.789604]]}}, {"type": "Feature", "properties": {"name": "Pockwock Road", "wave": "EA-3"}, "geometry": {"type": "LineString", "coordinates": [[-63.841911, 44.754511], [-63.84194, 44.754516]]}}, {"type": "Feature", "properties": {"name": "Pockwock Road", "wave": "EA-3"}, "geometry": {"type": "LineString", "coordinates": [[-63.818227, 44.75], [-63.819165, 44.750287], [-63.819307, 44.750338], [-63.820955, 44.750788], [-63.821042, 44.750806], [-63.821446, 44.750908], [-63.821622, 44.750954], [-63.823271, 44.751386], [-63.824593, 44.751692], [-63.825224, 44.751866], [-63.825677, 44.751986], [-63.825702, 44.751995], [-63.825916, 44.75206], [-63.826419, 44.752215], [-63.82696, 44.75238], [-63.827502, 44.75251], [-63.827956, 44.752593], [-63.827981, 44.752594], [-63.828145, 44.752612], [-63.82831, 44.752636], [-63.82899, 44.752734], [-63.829114, 44.752755], [-63.829797, 44.752874], [-63.830023, 44.752929], [-63.830174, 44.752967], [-63.830238, 44.752984], [-63.830728, 44.753114], [-63.830779, 44.753132], [-63.830816, 44.753141], [-63.831282, 44.753297], [-63.831395, 44.753324], [-63.831521, 44.753343], [-63.831648, 44.753353], [-63.831762, 44.753363], [-63.83185, 44.753363], [-63.831888, 44.753363], [-63.832135, 44.753354], [-63.832545, 44.75334], [-63.832797, 44.753351], [-63.832999, 44.75337], [-63.833062, 44.753371], [-63.833314, 44.753407], [-63.833516, 44.753436], [-63.833629, 44.753455], [-63.834336, 44.753557], [-63.834628, 44.753595], [-63.834842, 44.753628], [-63.834902, 44.753637], [-63.835091, 44.75366], [-63.835338, 44.753696], [-63.835748, 44.753737], [-63.836183, 44.753785], [-63.837123, 44.753889], [-63.838031, 44.753993], [-63.84059, 44.754331], [-63.841022, 44.754391], [-63.841651, 44.754482], [-63.841911, 44.754511]]}}, {"type": "Feature", "properties": {"name": "Pockwock Road", "wave": "EA-3"}, "geometry": {"type": "LineString", "coordinates": [[-63.806903, 44.744634], [-63.807268, 44.744833], [-63.808062, 44.745302], [-63.808717, 44.745661], [-63.809379, 44.746047], [-63.80958, 44.746166], [-63.809596, 44.746174], [-63.809981, 44.746384], [-63.810156, 44.746484], [-63.810608, 44.74673], [-63.810684, 44.746775], [-63.81111, 44.747012], [-63.811226, 44.747079]]}}, {"type": "Feature", "properties": {"name": "Pockwock Road", "wave": "EA-3"}, "geometry": {"type": "LineString", "coordinates": [[-63.856636, 44.765152], [-63.856625, 44.765196], [-63.856624, 44.765277], [-63.856636, 44.765385], [-63.856659, 44.765493], [-63.856696, 44.765602], [-63.856733, 44.765701], [-63.856832, 44.76589], [-63.856882, 44.766025]]}}, {"type": "Feature", "properties": {"name": "Lucasville Road", "wave": "EA-3"}, "geometry": {"type": "LineString", "coordinates": [[-63.75901, 44.732533], [-63.759306, 44.732261]]}}, {"type": "Feature", "properties": {"name": "Voyageur Way", "wave": "EA-4"}, "geometry": {"type": "LineString", "coordinates": [[-63.759191, 44.724503], [-63.759411, 44.724126], [-63.759488, 44.723991], [-63.759507, 44.723961]]}}, {"type": "Feature", "properties": {"name": "Voyageur Way", "wave": "EA-4"}, "geometry": {"type": "LineString", "coordinates": [[-63.759507, 44.723961], [-63.759582, 44.723834], [-63.75963, 44.723741], [-63.759707, 44.723615], [-63.759811, 44.723438]]}}, {"type": "Feature", "properties": {"name": "Voyageur Way", "wave": "EA-4"}, "geometry": {"type": "LineString", "coordinates": [[-63.758924, 44.724947], [-63.758958, 44.724879], [-63.759036, 44.724754], [-63.759113, 44.724638], [-63.759191, 44.724503]]}}, {"type": "Feature", "properties": {"name": "Voyageur Way", "wave": "EA-4"}, "geometry": {"type": "LineString", "coordinates": [[-63.758824, 44.725109], [-63.758894, 44.725004], [-63.758924, 44.724947]]}}, {"type": "Feature", "properties": {"name": "Voyageur Way", "wave": "EA-4"}, "geometry": {"type": "LineString", "coordinates": [[-63.75639, 44.726459], [-63.756414, 44.726456], [-63.756603, 44.726421], [-63.756806, 44.726386], [-63.756879, 44.726369], [-63.756892, 44.726365], [-63.756996, 44.726342], [-63.757142, 44.726299], [-63.757301, 44.726251], [-63.757351, 44.726236], [-63.757515, 44.726175], [-63.757681, 44.726104], [-63.757833, 44.726033], [-63.757868, 44.726016], [-63.758114, 44.725855], [-63.758192, 44.725794], [-63.758229, 44.725765], [-63.758292, 44.725716], [-63.758355, 44.725667], [-63.75856, 44.725452], [-63.758739, 44.725238], [-63.758824, 44.725109]]}}, {"type": "Feature", "properties": {"name": "St George Boulevard", "wave": "EA-4"}, "geometry": {"type": "LineString", "coordinates": [[-63.768886, 44.695442], [-63.768937, 44.695371], [-63.769053, 44.695246], [-63.769155, 44.69512], [-63.769258, 44.694995], [-63.769372, 44.694869], [-63.769487, 44.694753], [-63.769628, 44.694637], [-63.769755, 44.69453], [-63.769895, 44.694414], [-63.770047, 44.694306], [-63.770189, 44.69419], [-63.770329, 44.694084], [-63.770468, 44.693977], [-63.770608, 44.69387], [-63.770863, 44.693673], [-63.770978, 44.693584], [-63.771093, 44.693494], [-63.771182, 44.693423], [-63.771272, 44.693352], [-63.771348, 44.693289], [-63.771526, 44.693155]]}}, {"type": "Feature", "properties": {"name": "St George Boulevard", "wave": "EA-4"}, "geometry": {"type": "LineString", "coordinates": [[-63.766864, 44.69767], [-63.766967, 44.697563], [-63.767222, 44.697312], [-63.767362, 44.697196], [-63.767618, 44.696946], [-63.767732, 44.69683], [-63.767835, 44.696704], [-63.76795, 44.696579], [-63.768053, 44.696454], [-63.768168, 44.696319], [-63.76827, 44.696185], [-63.768386, 44.696051], [-63.768501, 44.695907], [-63.768732, 44.695639], [-63.768834, 44.695505], [-63.768886, 44.695442]]}}, {"type": "Feature", "properties": {"name": "St George Boulevard", "wave": "EA-4"}, "geometry": {"type": "LineString", "coordinates": [[-63.765999, 44.699267], [-63.766272, 44.69862], [-63.766337, 44.698486], [-63.766389, 44.698351], [-63.766543, 44.698082], [-63.766634, 44.697947], [-63.766737, 44.697814], [-63.766851, 44.697688], [-63.766864, 44.69767]]}}, {"type": "Feature", "properties": {"name": "St George Boulevard", "wave": "EA-4"}, "geometry": {"type": "LineString", "coordinates": [[-63.765052, 44.708801], [-63.765261, 44.70864], [-63.765376, 44.708542], [-63.765504, 44.708443], [-63.765606, 44.708354], [-63.765721, 44.708265], [-63.765823, 44.708175], [-63.765924, 44.708104], [-63.766078, 44.707961], [-63.766116, 44.707934]]}}, {"type": "Feature", "properties": {"name": "St George Boulevard", "wave": "EA-4"}, "geometry": {"type": "LineString", "coordinates": [[-63.759474, 44.713296], [-63.759677, 44.71313], [-63.75983, 44.713014], [-63.759996, 44.71289], [-63.760148, 44.712765], [-63.76048, 44.712497], [-63.76062, 44.712381], [-63.760672, 44.712345], [-63.760812, 44.712229], [-63.761142, 44.711961], [-63.761309, 44.711836], [-63.761462, 44.711702], [-63.761615, 44.711577], [-63.761767, 44.711461], [-63.761921, 44.711336], [-63.762037, 44.711245], [-63.762202, 44.711103], [-63.762354, 44.710988], [-63.762494, 44.710872], [-63.762623, 44.710756], [-63.762775, 44.71064], [-63.762915, 44.710532], [-63.763056, 44.710416], [-63.763209, 44.7103], [-63.763911, 44.70972], [-63.764051, 44.709613], [-63.76433, 44.709381], [-63.764472, 44.709273], [-63.764612, 44.709157], [-63.764739, 44.70905], [-63.764879, 44.708943], [-63.765052, 44.708801]]}}, {"type": "Feature", "properties": {"name": "Voyageur Way", "wave": "EA-4"}, "geometry": {"type": "LineString", "coordinates": [[-63.771876, 44.71146], [-63.771867, 44.711385], [-63.771802, 44.711214], [-63.771685, 44.711028], [-63.771522, 44.710848], [-63.771294, 44.710658], [-63.77104, 44.71051], [-63.770754, 44.710385], [-63.770461, 44.710306], [-63.770135, 44.710274], [-63.768194, 44.7102], [-63.767875, 44.710172], [-63.767653, 44.71014], [-63.767419, 44.71008], [-63.767165, 44.709996], [-63.766872, 44.709853], [-63.766051, 44.709385], [-63.765052, 44.708801]]}}, {"type": "Feature", "properties": {"name": "Voyageur Way", "wave": "EA-4"}, "geometry": {"type": "LineString", "coordinates": [[-63.769703, 44.716399], [-63.769835, 44.71631]]}}, {"type": "Feature", "properties": {"name": "Voyageur Way", "wave": "EA-4"}, "geometry": {"type": "LineString", "coordinates": [[-63.767011, 44.717733], [-63.767104, 44.717726], [-63.767334, 44.717689], [-63.767491, 44.717652], [-63.767836, 44.717546], [-63.768155, 44.717402], [-63.768539, 44.717185], [-63.769703, 44.716399]]}}, {"type": "Feature", "properties": {"name": "Voyageur Way", "wave": "EA-4"}, "geometry": {"type": "LineString", "coordinates": [[-63.763255, 44.717721], [-63.763381, 44.717681], [-63.763508, 44.717644], [-63.763634, 44.717613], [-63.763761, 44.717588], [-63.763887, 44.717565], [-63.764013, 44.717548], [-63.764138, 44.717536], [-63.764262, 44.717528], [-63.764385, 44.717524], [-63.764507, 44.717522], [-63.764629, 44.717523], [-63.764751, 44.71753], [-63.76487, 44.717539], [-63.764987, 44.717553], [-63.765099, 44.717571], [-63.76521, 44.717593], [-63.765317, 44.717619], [-63.765426, 44.717642], [-63.765533, 44.717664], [-63.765637, 44.717686], [-63.76574, 44.717705], [-63.765843, 44.717723], [-63.765944, 44.717736], [-63.766044, 44.717745], [-63.766142, 44.717753], [-63.766235, 44.717759], [-63.766324, 44.717763], [-63.766409, 44.717766], [-63.766492, 44.717765], [-63.766569, 44.717763], [-63.766644, 44.71776], [-63.766716, 44.717755], [-63.766782, 44.717751], [-63.766843, 44.717746], [-63.766899, 44.717743], [-63.767011, 44.717733]]}}, {"type": "Feature", "properties": {"name": "Voyageur Way", "wave": "EA-4"}, "geometry": {"type": "LineString", "coordinates": [[-63.762338, 44.718202], [-63.762396, 44.71816], [-63.762487, 44.718096], [-63.762582, 44.718035], [-63.762682, 44.717976], [-63.762786, 44.717918], [-63.762896, 44.717862], [-63.763011, 44.717811], [-63.763131, 44.717765], [-63.763255, 44.717721]]}}, {"type": "Feature", "properties": {"name": "Voyageur Way", "wave": "EA-4"}, "geometry": {"type": "LineString", "coordinates": [[-63.759811, 44.723438], [-63.759938, 44.723256], [-63.760093, 44.723024], [-63.760169, 44.722933], [-63.760278, 44.722802], [-63.760452, 44.722594], [-63.760554, 44.722487], [-63.760734, 44.722281], [-63.760823, 44.722183], [-63.760913, 44.722075], [-63.761002, 44.721976], [-63.76108, 44.721869], [-63.761145, 44.721752], [-63.761251, 44.721513], [-63.761288, 44.721403], [-63.761314, 44.721286], [-63.761342, 44.721177], [-63.761368, 44.721061], [-63.76137, 44.721046], [-63.761396, 44.720827], [-63.761424, 44.720611], [-63.761439, 44.720494], [-63.761453, 44.720395], [-63.761468, 44.720301], [-63.761486, 44.720202], [-63.761502, 44.720102], [-63.761517, 44.720003], [-63.761532, 44.719907], [-63.761548, 44.719812], [-63.761564, 44.719719], [-63.76158, 44.719628], [-63.761595, 44.719537], [-63.76161, 44.719448], [-63.761612, 44.719434], [-63.761625, 44.719361], [-63.761641, 44.719275], [-63.761658, 44.719191], [-63.761678, 44.719106], [-63.761706, 44.719022], [-63.76174, 44.718938], [-63.761778, 44.718853], [-63.761806, 44.7188], [-63.761822, 44.718769], [-63.761876, 44.718686], [-63.761936, 44.718603], [-63.762002, 44.718521], [-63.762073, 44.718443], [-63.762149, 44.718367], [-63.762227, 44.718294], [-63.762309, 44.718225], [-63.762338, 44.718202]]}}, {"type": "Feature", "properties": {"name": "St George Boulevard", "wave": "EA-4"}, "geometry": {"type": "LineString", "coordinates": [[-63.750367, 44.720566], [-63.75038, 44.720557], [-63.75052, 44.72045], [-63.75066, 44.720334], [-63.750801, 44.720227], [-63.751081, 44.719995], [-63.751362, 44.719781], [-63.75149, 44.719674], [-63.75163, 44.719566], [-63.751745, 44.719468], [-63.751757, 44.719459], [-63.751885, 44.719352], [-63.751988, 44.719236], [-63.752077, 44.71912], [-63.752141, 44.718994], [-63.75221, 44.7188], [-63.752234, 44.718733], [-63.752274, 44.718599], [-63.7523, 44.718464], [-63.752327, 44.718338], [-63.752342, 44.718203], [-63.752381, 44.718078], [-63.752485, 44.717844], [-63.752562, 44.717727], [-63.752651, 44.717621], [-63.752767, 44.717513], [-63.752894, 44.717397], [-63.753035, 44.717289], [-63.753188, 44.717165], [-63.753341, 44.717049], [-63.753367, 44.717022], [-63.753495, 44.716924], [-63.75366, 44.716808], [-63.753812, 44.716683], [-63.753966, 44.716567], [-63.754106, 44.716451], [-63.754258, 44.716344], [-63.754399, 44.716228], [-63.754539, 44.716121], [-63.754844, 44.715942], [-63.754908, 44.715916], [-63.75501, 44.715872], [-63.755162, 44.715819], [-63.755327, 44.715775], [-63.755503, 44.71574], [-63.755693, 44.715714], [-63.755882, 44.715698], [-63.75606, 44.715672], [-63.756249, 44.715637], [-63.756426, 44.715584], [-63.756605, 44.715513], [-63.75662, 44.715506], [-63.756769, 44.715434], [-63.756934, 44.715335], [-63.757228, 44.715121], [-63.757368, 44.715005], [-63.757827, 44.71463], [-63.757981, 44.714515], [-63.75812, 44.71439], [-63.758274, 44.714273], [-63.75858, 44.714023], [-63.758745, 44.713898], [-63.758899, 44.713764], [-63.759051, 44.713639], [-63.759217, 44.713505], [-63.759474, 44.713296]]}}, {"type": "Feature", "properties": {"name": "St George Boulevard", "wave": "EA-4"}, "geometry": {"type": "LineString", "coordinates": [[-63.743998, 44.726896], [-63.744, 44.726779], [-63.744001, 44.726743], [-63.744003, 44.7267], [-63.744014, 44.726612], [-63.744032, 44.726525], [-63.744049, 44.726434], [-63.744069, 44.726356], [-63.744108, 44.72624], [-63.74416, 44.726114], [-63.744225, 44.725989], [-63.744419, 44.725585], [-63.744497, 44.72545], [-63.744651, 44.725199], [-63.744755, 44.725074], [-63.744869, 44.724958], [-63.744997, 44.724851], [-63.745418, 44.72453], [-63.745571, 44.724422], [-63.745711, 44.724315], [-63.745863, 44.724199], [-63.746005, 44.724093], [-63.746157, 44.723985], [-63.746297, 44.723878], [-63.74645, 44.723762], [-63.74659, 44.723655], [-63.746744, 44.723539], [-63.747049, 44.723325], [-63.747189, 44.723209], [-63.747496, 44.722996], [-63.747636, 44.722879], [-63.747776, 44.722772], [-63.747903, 44.722656], [-63.748044, 44.722549], [-63.7483, 44.722308], [-63.748427, 44.722192], [-63.748683, 44.721941], [-63.748823, 44.721825], [-63.748951, 44.7217], [-63.749232, 44.721468], [-63.749385, 44.721352], [-63.749666, 44.72112], [-63.749806, 44.721013], [-63.749946, 44.720896], [-63.750086, 44.720789], [-63.750227, 44.720673], [-63.750355, 44.720575], [-63.750367, 44.720566]]}}, {"type": "Feature", "properties": {"name": "Voyageur Way", "wave": "EA-4"}, "geometry": {"type": "LineString", "coordinates": [[-63.753031, 44.727107], [-63.753086, 44.727091], [-63.753276, 44.727029], [-63.753466, 44.726985], [-63.753618, 44.726958], [-63.753744, 44.726935]]}}, {"type": "Feature", "properties": {"name": "Voyageur Way", "wave": "EA-4"}, "geometry": {"type": "LineString", "coordinates": [[-63.751277, 44.728312], [-63.751302, 44.728294], [-63.751366, 44.72824], [-63.751431, 44.728178], [-63.75147, 44.728141], [-63.751502, 44.728111], [-63.751584, 44.728035], [-63.751673, 44.727945], [-63.751775, 44.727857], [-63.752005, 44.72766], [-63.752273, 44.727473], [-63.752413, 44.727383], [-63.752564, 44.727294], [-63.75273, 44.727215], [-63.752909, 44.727143], [-63.752935, 44.727136], [-63.753031, 44.727107]]}}, {"type": "Feature", "properties": {"name": "Lucasville Road", "wave": "EA-3"}, "geometry": {"type": "LineString", "coordinates": [[-63.743119, 44.746851], [-63.743299, 44.746636], [-63.743561, 44.746319]]}}, {"type": "Feature", "properties": {"name": "Lucasville Road", "wave": "EA-3"}, "geometry": {"type": "LineString", "coordinates": [[-63.742233, 44.747952], [-63.742669, 44.747443]]}}, {"type": "Feature", "properties": {"name": "Lucasville Road", "wave": "EA-3"}, "geometry": {"type": "LineString", "coordinates": [[-63.741345, 44.749031], [-63.741785, 44.74848], [-63.742233, 44.747952]]}}, {"type": "Feature", "properties": {"name": "Lucasville Road", "wave": "EA-3"}, "geometry": {"type": "LineString", "coordinates": [[-63.740846, 44.749581], [-63.741345, 44.749031]]}}, {"type": "Feature", "properties": {"name": "Lucasville Road", "wave": "EA-3"}, "geometry": {"type": "LineString", "coordinates": [[-63.74052, 44.75], [-63.740846, 44.749581]]}}, {"type": "Feature", "properties": {"name": "Lucasville Road", "wave": "EA-3"}, "geometry": {"type": "LineString", "coordinates": [[-63.740412, 44.750145], [-63.74052, 44.75]]}}, {"type": "Feature", "properties": {"name": "Lucasville Road", "wave": "EA-3"}, "geometry": {"type": "LineString", "coordinates": [[-63.739937, 44.750709], [-63.740412, 44.750145]]}}, {"type": "Feature", "properties": {"name": "Lucasville Road", "wave": "EA-3"}, "geometry": {"type": "LineString", "coordinates": [[-63.739501, 44.751237], [-63.739937, 44.750709]]}}, {"type": "Feature", "properties": {"name": "Lucasville Road", "wave": "EA-3"}, "geometry": {"type": "LineString", "coordinates": [[-63.739026, 44.751774], [-63.739501, 44.751237]]}}, {"type": "Feature", "properties": {"name": "Lucasville Road", "wave": "EA-3"}, "geometry": {"type": "LineString", "coordinates": [[-63.736665, 44.754647], [-63.736742, 44.754557], [-63.736959, 44.754289], [-63.737781, 44.753305], [-63.737845, 44.753224], [-63.738305, 44.752656], [-63.738449, 44.752481], [-63.738731, 44.752134], [-63.738769, 44.752087], [-63.739026, 44.751774]]}}, {"type": "Feature", "properties": {"name": "Lucasville Road", "wave": "EA-3"}, "geometry": {"type": "LineString", "coordinates": [[-63.727147, 44.759142], [-63.72735, 44.758922], [-63.727607, 44.758626], [-63.727953, 44.758233], [-63.727978, 44.758206], [-63.728119, 44.758054], [-63.728272, 44.75792], [-63.728451, 44.757787], [-63.728629, 44.757662], [-63.728744, 44.75759], [-63.72882, 44.757546], [-63.728923, 44.757493], [-63.729037, 44.75744], [-63.72915, 44.757395], [-63.729265, 44.757351], [-63.729379, 44.757325], [-63.729506, 44.757289], [-63.729633, 44.757272], [-63.729886, 44.757211], [-63.730823, 44.756993]]}}, {"type": "Feature", "properties": {"name": "Lucasville Road", "wave": "EA-3"}, "geometry": {"type": "LineString", "coordinates": [[-63.724802, 44.762011], [-63.72536, 44.76133], [-63.725579, 44.761049], [-63.725925, 44.760631], [-63.726091, 44.760426], [-63.72609, 44.760421], [-63.726309, 44.760166], [-63.726618, 44.75979], [-63.727004, 44.759306], [-63.727147, 44.759142]]}}, {"type": "Feature", "properties": {"name": "Lucasville Road", "wave": "EA-3"}, "geometry": {"type": "LineString", "coordinates": [[-63.717683, 44.771739], [-63.717718, 44.771627], [-63.717743, 44.771537], [-63.717757, 44.771447], [-63.71776, 44.771267], [-63.717749, 44.771177], [-63.717749, 44.771141], [-63.71781, 44.77034], [-63.717824, 44.770233], [-63.717838, 44.770188], [-63.717841, 44.770171], [-63.717851, 44.770116], [-63.717864, 44.770071], [-63.717891, 44.770008], [-63.717891, 44.769999], [-63.717943, 44.769909], [-63.718007, 44.769801], [-63.718072, 44.769703], [-63.718149, 44.769605], [-63.718175, 44.769569], [-63.718666, 44.769004]]}}, {"type": "Feature", "properties": {"name": "Lucasville Road", "wave": "EA-3"}, "geometry": {"type": "LineString", "coordinates": [[-63.718666, 44.769004], [-63.719662, 44.767851], [-63.720228, 44.767198], [-63.72042, 44.766975], [-63.720599, 44.766768], [-63.720664, 44.766697], [-63.720869, 44.766473], [-63.721416, 44.765888], [-63.721471, 44.765829], [-63.721702, 44.76557], [-63.722142, 44.765076]]}}, {"type": "Feature", "properties": {"name": "Lucasville Road", "wave": "EA-3"}, "geometry": {"type": "LineString", "coordinates": [[-63.722142, 44.765076], [-63.722331, 44.764863], [-63.722779, 44.764363], [-63.723447, 44.763602], [-63.724217, 44.762716], [-63.724273, 44.762656], [-63.724802, 44.762011]]}}, {"type": "Feature", "properties": {"name": "Lucasville Road", "wave": "EA-3"}, "geometry": {"type": "LineString", "coordinates": [[-63.714322, 44.774443], [-63.71442, 44.774358], [-63.714535, 44.774287], [-63.714573, 44.774269], [-63.714662, 44.774225], [-63.715006, 44.774092], [-63.715373, 44.77396], [-63.715577, 44.77388], [-63.715843, 44.773755], [-63.715971, 44.773684], [-63.716098, 44.773613], [-63.716327, 44.773453], [-63.716355, 44.773423], [-63.716546, 44.773212], [-63.716572, 44.773184], [-63.716892, 44.772818], [-63.717085, 44.772585], [-63.71715, 44.772505], [-63.717239, 44.77237], [-63.717304, 44.77229], [-63.717652, 44.771807], [-63.717683, 44.771739]]}}, {"type": "Feature", "properties": {"name": "Lucasville Road", "wave": "EA-3"}, "geometry": {"type": "LineString", "coordinates": [[-63.742669, 44.747443], [-63.742888, 44.747146], [-63.743068, 44.746914], [-63.743119, 44.746851]]}}, {"type": "Feature", "properties": {"name": "Lucasville Road", "wave": "EA-3"}, "geometry": {"type": "LineString", "coordinates": [[-63.743561, 44.746319], [-63.744082, 44.745688], [-63.744108, 44.745652], [-63.744261, 44.745464], [-63.744415, 44.745267], [-63.745661, 44.743727], [-63.74652, 44.742653], [-63.7467, 44.74243], [-63.746893, 44.742178], [-63.74697, 44.742098], [-63.747111, 44.741937], [-63.747348, 44.741728]]}}, {"type": "Feature", "properties": {"name": "McCabe Lake Drive", "wave": "EA-4"}, "geometry": {"type": "LineString", "coordinates": [[-63.763934, 44.788362], [-63.763746, 44.788566], [-63.763377, 44.788845], [-63.762963, 44.789038], [-63.76276, 44.789096], [-63.762041, 44.789217]]}}, {"type": "Feature", "properties": {"name": "McCabe Lake Drive", "wave": "EA-4"}, "geometry": {"type": "LineString", "coordinates": [[-63.76459, 44.787527], [-63.764345, 44.787876], [-63.763934, 44.788362]]}}, {"type": "Feature", "properties": {"name": "McCabe Lake Drive", "wave": "EA-4"}, "geometry": {"type": "LineString", "coordinates": [[-63.770064, 44.787128], [-63.769959, 44.787093], [-63.769619, 44.78696], [-63.768979, 44.78676], [-63.767437, 44.786299], [-63.766894, 44.786224], [-63.766767, 44.786206], [-63.766522, 44.786225], [-63.766317, 44.78624], [-63.765821, 44.786366], [-63.765461, 44.786547], [-63.765086, 44.786863], [-63.76459, 44.787527]]}}, {"type": "Feature", "properties": {"name": "McCabe Lake Drive", "wave": "EA-4"}, "geometry": {"type": "LineString", "coordinates": [[-63.770449, 44.789604], [-63.770568, 44.789314], [-63.770667, 44.789073], [-63.770876, 44.788428], [-63.77089, 44.788279], [-63.770815, 44.787951], [-63.770673, 44.787613], [-63.77039, 44.787359], [-63.770064, 44.787128]]}}, {"type": "Feature", "properties": {"name": "McCabe Lake Drive", "wave": "EA-4"}, "geometry": {"type": "LineString", "coordinates": [[-63.773174, 44.793984], [-63.774632, 44.794802]]}}, {"type": "Feature", "properties": {"name": "McCabe Lake Drive", "wave": "EA-4"}, "geometry": {"type": "LineString", "coordinates": [[-63.75547, 44.784911], [-63.755009, 44.783811], [-63.754697, 44.783316], [-63.7543, 44.782981], [-63.753882, 44.782699], [-63.753254, 44.782357], [-63.752664, 44.782121], [-63.74987, 44.781093], [-63.749799, 44.78106], [-63.748464, 44.78055], [-63.74833, 44.780499], [-63.747909, 44.780325], [-63.746911, 44.779913], [-63.746619, 44.779547], [-63.746431, 44.779185], [-63.746318, 44.778275], [-63.746104, 44.777528]]}}, {"type": "Feature", "properties": {"name": "McCabe Lake Drive", "wave": "EA-4"}, "geometry": {"type": "LineString", "coordinates": [[-63.746104, 44.777528], [-63.745683, 44.777231], [-63.745168, 44.776941], [-63.744642, 44.776777], [-63.744391, 44.776716], [-63.744124, 44.776713], [-63.743443, 44.776767], [-63.742554, 44.776889]]}}, {"type": "Feature", "properties": {"name": "Lucasville Road", "wave": "EA-3"}, "geometry": {"type": "LineString", "coordinates": [[-63.710579, 44.781971], [-63.710632, 44.781942], [-63.710691, 44.78191], [-63.710722, 44.781902], [-63.710861, 44.781866], [-63.711063, 44.78185], [-63.711401, 44.78184], [-63.711966, 44.781833]]}}, {"type": "Feature", "properties": {"name": "Pockwock Road", "wave": "EA-3"}, "geometry": {"type": "LineString", "coordinates": [[-63.813876, 44.748588], [-63.814021, 44.748658], [-63.814397, 44.748823], [-63.815291, 44.749125], [-63.815449, 44.749173], [-63.816109, 44.749373], [-63.81629, 44.749421], [-63.817103, 44.74964], [-63.818227, 44.75]]}}, {"type": "Feature", "properties": {"name": "Pockwock Road", "wave": "EA-3"}, "geometry": {"type": "LineString", "coordinates": [[-63.812392, 44.747759], [-63.812579, 44.747856], [-63.812623, 44.747883]]}}, {"type": "Feature", "properties": {"name": "Pockwock Road", "wave": "EA-3"}, "geometry": {"type": "LineString", "coordinates": [[-63.811226, 44.747079], [-63.811963, 44.747513], [-63.811988, 44.74753], [-63.812227, 44.747667], [-63.812392, 44.747759]]}}, {"type": "Feature", "properties": {"name": "Voyageur Way", "wave": "EA-4"}, "geometry": {"type": "LineString", "coordinates": [[-63.755414, 44.726639], [-63.755617, 44.726603], [-63.755819, 44.72656], [-63.756008, 44.726525], [-63.756098, 44.72651], [-63.756175, 44.726497], [-63.756205, 44.726491], [-63.756225, 44.726488], [-63.75639, 44.726459]]}}, {"type": "Feature", "properties": {"name": "Voyageur Way", "wave": "EA-4"}, "geometry": {"type": "LineString", "coordinates": [[-63.753744, 44.726935], [-63.753826, 44.72692], [-63.754035, 44.726881], [-63.754237, 44.726847], [-63.754427, 44.726812], [-63.754494, 44.726801], [-63.754624, 44.726778], [-63.754675, 44.726769], [-63.754832, 44.726743], [-63.755022, 44.726707], [-63.755225, 44.726673], [-63.755414, 44.726638], [-63.755414, 44.726639]]}}, {"type": "Feature", "properties": {"name": "Pockwock Road", "wave": "EA-3"}, "geometry": {"type": "LineString", "coordinates": [[-63.802827, 44.742182], [-63.803054, 44.742321], [-63.803523, 44.742613], [-63.804266, 44.74309], [-63.804938, 44.743509], [-63.805495, 44.743846], [-63.805632, 44.743925], [-63.806157, 44.744228], [-63.806903, 44.744634]]}}]}