{"type": "FeatureCollection", "_meta": {"description": "Community boundaries for the 2023 Upper Tantallon study area, used to place a package's households in the community the emergency alerts name.", "source": "OpenStreetMap administrative boundary relations via the Overpass API, bbox 44.64,-63.94,44.81,-63.72", "retrieved": "2026-08-10", "licence": "ODbL 1.0, (c) OpenStreetMap contributors", "note": "Halliburton Subdivision is the OSM name for the Haliburton Hills subdivision, which sits inside the Stillwater Lake community and is the name EA-3 uses."}, "features": [{"type": "Feature", "properties": {"name": "Westwood Hills"}, "geometry": {"type": "Polygon", "coordinates": [[[-63.88358, 44.705531], [-63.879231, 44.704447], [-63.878766, 44.704235], [-63.878556, 44.704136], [-63.876617, 44.703648], [-63.876145, 44.703526], [-63.875609, 44.703464], [-63.875577, 44.703262], [-63.874966, 44.703166], [-63.874364, 44.703173], [-63.873862, 44.702902], [-63.873583, 44.703307], [-63.873104, 44.703084], [-63.8722, 44.702704], [-63.868847, 44.703384], [-63.864701, 44.704354], [-63.864951, 44.704619], [-63.864931, 44.704722], [-63.864866, 44.704864], [-63.865093, 44.704858], [-63.865502, 44.705009], [-63.862431, 44.705617], [-63.86094, 44.705926], [-63.858924, 44.705666], [-63.856487, 44.706242], [-63.854266, 44.704805], [-63.853844, 44.70501], [-63.853641, 44.705088], [-63.853077, 44.705353], [-63.852086, 44.705776], [-63.851028, 44.706215], [-63.850335, 44.706512], [-63.849759, 44.706656], [-63.853525, 44.706711], [-63.856034, 44.706747], [-63.857498, 44.709115], [-63.860317, 44.715297], [-63.860454, 44.715592], [-63.861517, 44.716823], [-63.864303, 44.720066], [-63.867559, 44.723839], [-63.867717, 44.725805], [-63.868117, 44.730455], [-63.865398, 44.732704], [-63.865243, 44.73282], [-63.865229, 44.732861], [-63.865182, 44.732956], [-63.865152, 44.732994], [-63.865075, 44.733059], [-63.865027, 44.733108], [-63.864947, 44.733217], [-63.864926, 44.733275], [-63.86492, 44.733333], [-63.864872, 44.733405], [-63.864871, 44.733435], [-63.864895, 44.733513], [-63.864905, 44.733588], [-63.864906, 44.733653], [-63.864921, 44.733692], [-63.864961, 44.733756], [-63.865015, 44.733816], [-63.865059, 44.733835], [-63.865162, 44.733858], [-63.865218, 44.733881], [-63.865288, 44.733927], [-63.865311, 44.733946], [-63.865365, 44.733999], [-63.865422, 44.734068], [-63.865458, 44.734095], [-63.865482, 44.734102], [-63.865569, 44.734112], [-63.8656, 44.734122], [-63.865626, 44.734139], [-63.865634, 44.734161], [-63.865621, 44.734221], [-63.865625, 44.734238], [-63.865638, 44.734261], [-63.865677, 44.734298], [-63.865729, 44.734366], [-63.865779, 44.734451], [-63.865826, 44.734516], [-63.865847, 44.734591], [-63.865857, 44.734609], [-63.865924, 44.734664], [-63.865931, 44.734672], [-63.865938, 44.734701], [-63.865913, 44.734771], [-63.865915, 44.734828], [-63.865896, 44.734865], [-63.865872, 44.734901], [-63.865862, 44.734915], [-63.865842, 44.734938], [-63.865776, 44.734985], [-63.865736, 44.734998], [-63.865656, 44.735007], [-63.86563, 44.735013], [-63.8656, 44.735035], [-63.865584, 44.735056], [-63.865563, 44.735111], [-63.865558, 44.735217], [-63.865506, 44.735264], [-63.865392, 44.735387], [-63.865364, 44.735428], [-63.865349, 44.735466], [-63.865351, 44.735513], [-63.865297, 44.735571], [-63.865276, 44.735626], [-63.865228, 44.735693], [-63.865196, 44.735766], [-63.865031, 44.735968], [-63.869931, 44.734909], [-63.87062, 44.736028], [-63.872383, 44.739916], [-63.873372, 44.742037], [-63.87674, 44.739002], [-63.881018, 44.735872], [-63.883223, 44.736355], [-63.886211, 44.735949], [-63.891047, 44.735326], [-63.89212, 44.735072], [-63.891961, 44.734854], [-63.891924, 44.734764], [-63.891925, 44.734683], [-63.891863, 44.734574], [-63.891725, 44.734466], [-63.891513, 44.734249], [-63.891401, 44.734095], [-63.891377, 44.734005], [-63.891378, 44.733897], [-63.891391, 44.733861], [-63.891416, 44.733834], [-63.891467, 44.733816], [-63.891606, 44.733835], [-63.891631, 44.733826], [-63.891661, 44.733826], [-63.895631, 44.730443], [-63.894822, 44.728788], [-63.893829, 44.727217], [-63.893406, 44.726559], [-63.892181, 44.724627], [-63.890414, 44.721781], [-63.885373, 44.714285], [-63.884123, 44.711302], [-63.882027, 44.706867], [-63.883, 44.706469], [-63.88358, 44.705531]]]}}, {"type": "Feature", "properties": {"name": "Highland Park"}, "geometry": {"type": "Polygon", "coordinates": [[[-63.836864, 44.712212], [-63.835851, 44.711607], [-63.828104, 44.707006], [-63.828092, 44.707291], [-63.827941, 44.707924], [-63.82779, 44.709628], [-63.827897, 44.710029], [-63.826874, 44.710271], [-63.825948, 44.710719], [-63.825571, 44.710135], [-63.825307, 44.710375], [-63.82459, 44.710962], [-63.824805, 44.711111], [-63.824666, 44.711374], [-63.824156, 44.711416], [-63.823705, 44.7123], [-63.824011, 44.71238], [-63.823813, 44.712666], [-63.824402, 44.713104], [-63.823741, 44.713744], [-63.823847, 44.714315], [-63.824009, 44.714587], [-63.824134, 44.714814], [-63.824728, 44.71524], [-63.825316, 44.715504], [-63.825935, 44.71601], [-63.826037, 44.716229], [-63.825469, 44.716914], [-63.824524, 44.716695], [-63.823879, 44.716949], [-63.823838, 44.716965], [-63.823787, 44.716985], [-63.823525, 44.717185], [-63.823017, 44.717563], [-63.822098, 44.718304], [-63.821223, 44.718272], [-63.821084, 44.71872], [-63.820667, 44.718771], [-63.820561, 44.7188], [-63.819379, 44.719122], [-63.818895, 44.719168], [-63.818634, 44.719329], [-63.818686, 44.719429], [-63.818582, 44.71983], [-63.819327, 44.720074], [-63.819909, 44.720065], [-63.820334, 44.719666], [-63.820753, 44.719445], [-63.821159, 44.719389], [-63.82132, 44.71955], [-63.821767, 44.71959], [-63.822311, 44.719877], [-63.822222, 44.720014], [-63.821556, 44.720491], [-63.821026, 44.7206], [-63.820721, 44.720744], [-63.820563, 44.721124], [-63.81983, 44.721596], [-63.818691, 44.721674], [-63.817676, 44.721848], [-63.817429, 44.721784], [-63.817231, 44.721599], [-63.817268, 44.721192], [-63.817577, 44.720779], [-63.817565, 44.720514], [-63.81764, 44.719682], [-63.816946, 44.719428], [-63.816412, 44.719615], [-63.815612, 44.719821], [-63.814983, 44.720943], [-63.814187, 44.721748], [-63.813161, 44.722724], [-63.812571, 44.723169], [-63.812434, 44.723298], [-63.811705, 44.723971], [-63.811339, 44.723972], [-63.810687, 44.723905], [-63.810651, 44.724291], [-63.810416, 44.724492], [-63.810289, 44.724708], [-63.811877, 44.725668], [-63.813078, 44.725012], [-63.81413, 44.725729], [-63.816404, 44.727238], [-63.817263, 44.727437], [-63.81902, 44.727275], [-63.819702, 44.727024], [-63.81982, 44.726993], [-63.819829, 44.726949], [-63.820223, 44.726682], [-63.820856, 44.725892], [-63.821561, 44.725366], [-63.821716, 44.72537], [-63.821875, 44.725294], [-63.822197, 44.72502], [-63.822703, 44.725113], [-63.822834, 44.725313], [-63.823345, 44.725757], [-63.82357, 44.725662], [-63.824606, 44.725235], [-63.823592, 44.724019], [-63.823857, 44.723459], [-63.825417, 44.723869], [-63.826146, 44.724387], [-63.826116, 44.725104], [-63.826262, 44.725719], [-63.82793, 44.726372], [-63.828319, 44.726435], [-63.831811, 44.726949], [-63.833098, 44.725912], [-63.835158, 44.726461], [-63.83918, 44.728236], [-63.840351, 44.728016], [-63.841156, 44.727491], [-63.84251, 44.725992], [-63.843827, 44.724875], [-63.844972, 44.7236], [-63.844321, 44.722864], [-63.844352, 44.722853], [-63.844025, 44.722483], [-63.84385, 44.72238], [-63.843877, 44.722357], [-63.84311, 44.721903], [-63.842505, 44.721556], [-63.841789, 44.721123], [-63.839767, 44.719929], [-63.838523, 44.719223], [-63.836725, 44.718261], [-63.835682, 44.717615], [-63.834904, 44.71717], [-63.834703, 44.717047], [-63.836374, 44.715488], [-63.833655, 44.714398], [-63.832954, 44.713962], [-63.834105, 44.713402], [-63.835978, 44.712512], [-63.836864, 44.712212]]]}}, {"type": "Feature", "properties": {"name": "Highland Park West"}, "geometry": {"type": "Polygon", "coordinates": [[[-63.817263, 44.727437], [-63.818962, 44.725979], [-63.821295, 44.724066], [-63.822334, 44.723154], [-63.823883, 44.721405], [-63.825869, 44.719364], [-63.827436, 44.717596], [-63.828384, 44.716913], [-63.830699, 44.715801], [-63.833113, 44.714617], [-63.833655, 44.714398], [-63.836374, 44.715488], [-63.834703, 44.717047], [-63.834904, 44.71717], [-63.835682, 44.717615], [-63.836725, 44.718261], [-63.838523, 44.719223], [-63.839767, 44.719929], [-63.841789, 44.721123], [-63.842505, 44.721556], [-63.84311, 44.721903], [-63.843877, 44.722357], [-63.84385, 44.72238], [-63.844025, 44.722483], [-63.844352, 44.722853], [-63.844321, 44.722864], [-63.844972, 44.7236], [-63.843827, 44.724875], [-63.84251, 44.725992], [-63.841156, 44.727491], [-63.840351, 44.728016], [-63.83918, 44.728236], [-63.835158, 44.726461], [-63.833098, 44.725912], [-63.831811, 44.726949], [-63.828319, 44.726435], [-63.82793, 44.726372], [-63.826262, 44.725719], [-63.826116, 44.725104], [-63.826146, 44.724387], [-63.825417, 44.723869], [-63.823857, 44.723459], [-63.823592, 44.724019], [-63.824606, 44.725235], [-63.82357, 44.725662], [-63.823345, 44.725757], [-63.822834, 44.725313], [-63.822703, 44.725113], [-63.822197, 44.72502], [-63.821875, 44.725294], [-63.821716, 44.72537], [-63.821561, 44.725366], [-63.820856, 44.725892], [-63.820223, 44.726682], [-63.819829, 44.726949], [-63.81982, 44.726993], [-63.819702, 44.727024], [-63.81902, 44.727275], [-63.817263, 44.727437]]]}}, {"type": "Feature", "properties": {"name": "Highland Park East"}, "geometry": {"type": "Polygon", "coordinates": [[[-63.825084, 44.705952], [-63.825706, 44.706166], [-63.825975, 44.70657], [-63.826822, 44.706974], [-63.827562, 44.707089], [-63.82723, 44.709422], [-63.826586, 44.710039], [-63.826286, 44.710139], [-63.82441, 44.709626], [-63.823792, 44.710203], [-63.823507, 44.710756], [-63.824, 44.710985], [-63.822992, 44.712098], [-63.820736, 44.713906], [-63.819717, 44.713846], [-63.819547, 44.713102], [-63.820453, 44.712035], [-63.820793, 44.71121], [-63.821614, 44.711009], [-63.822463, 44.710184], [-63.821359, 44.709097], [-63.81983, 44.708132], [-63.818782, 44.70783], [-63.818896, 44.707488], [-63.817848, 44.706502], [-63.816574, 44.705858], [-63.818103, 44.704449], [-63.814564, 44.702738], [-63.814252, 44.70296], [-63.816659, 44.704369], [-63.815385, 44.705596], [-63.810942, 44.703062], [-63.810326, 44.702747], [-63.8086, 44.702204], [-63.809956, 44.700837], [-63.810622, 44.700399], [-63.811731, 44.700942], [-63.813678, 44.699225], [-63.815477, 44.699891], [-63.817622, 44.70124], [-63.820777, 44.703132], [-63.822256, 44.703973], [-63.824474, 44.705165], [-63.825084, 44.705952]]]}}, {"type": "Feature", "properties": {"name": "Yankeetown"}, "geometry": {"type": "Polygon", "coordinates": [[[-63.836374, 44.715488], [-63.833655, 44.714398], [-63.832954, 44.713962], [-63.834105, 44.713402], [-63.835978, 44.712512], [-63.836864, 44.712212], [-63.835851, 44.711607], [-63.828104, 44.707006], [-63.828092, 44.707291], [-63.827941, 44.707924], [-63.82779, 44.709628], [-63.827897, 44.710029], [-63.826874, 44.710271], [-63.825948, 44.710719], [-63.825571, 44.710135], [-63.825307, 44.710375], [-63.82459, 44.710962], [-63.824805, 44.711111], [-63.824666, 44.711374], [-63.824156, 44.711416], [-63.823705, 44.7123], [-63.824011, 44.71238], [-63.823813, 44.712666], [-63.824402, 44.713104], [-63.823741, 44.713744], [-63.823847, 44.714315], [-63.824009, 44.714587], [-63.824134, 44.714814], [-63.824728, 44.71524], [-63.825316, 44.715504], [-63.825935, 44.71601], [-63.826037, 44.716229], [-63.825469, 44.716914], [-63.824524, 44.716695], [-63.823879, 44.716949], [-63.823838, 44.716965], [-63.823787, 44.716985], [-63.823525, 44.717185], [-63.823017, 44.717563], [-63.822098, 44.718304], [-63.821223, 44.718272], [-63.821084, 44.71872], [-63.820667, 44.718771], [-63.820561, 44.7188], [-63.819379, 44.719122], [-63.818895, 44.719168], [-63.818634, 44.719329], [-63.818686, 44.719429], [-63.818582, 44.71983], [-63.819327, 44.720074], [-63.819909, 44.720065], [-63.820334, 44.719666], [-63.820753, 44.719445], [-63.821159, 44.719389], [-63.82132, 44.71955], [-63.821767, 44.71959], [-63.822311, 44.719877], [-63.822222, 44.720014], [-63.821556, 44.720491], [-63.821026, 44.7206], [-63.820721, 44.720744], [-63.820563, 44.721124], [-63.81983, 44.721596], [-63.818691, 44.721674], [-63.817676, 44.721848], [-63.817429, 44.721784], [-63.817231, 44.721599], [-63.817268, 44.721192], [-63.817577, 44.720779], [-63.817565, 44.720514], [-63.81764, 44.719682], [-63.816946, 44.719428], [-63.816412, 44.719615], [-63.815612, 44.719821], [-63.814983, 44.720943], [-63.814187, 44.721748], [-63.813161, 44.722724], [-63.812571, 44.723169], [-63.812434, 44.723298], [-63.811705, 44.723971], [-63.811339, 44.723972], [-63.810687, 44.723905], [-63.810651, 44.724291], [-63.810416, 44.724492], [-63.810289, 44.724708], [-63.809602, 44.725394], [-63.808913, 44.725287], [-63.808615, 44.725241], [-63.808613, 44.725238], [-63.808165, 44.724662], [-63.807478, 44.725104], [-63.807263, 44.726247], [-63.807778, 44.726247], [-63.807864, 44.728443], [-63.807049, 44.729113], [-63.805032, 44.729876], [-63.805375, 44.730699], [-63.803295, 44.732591], [-63.804259, 44.733412], [-63.804307, 44.734203], [-63.805847, 44.733809], [-63.807349, 44.732955], [-63.810139, 44.731949], [-63.815716, 44.728821], [-63.817263, 44.727437], [-63.81902, 44.727275], [-63.819702, 44.727024], [-63.81982, 44.726993], [-63.819829, 44.726949], [-63.820223, 44.726682], [-63.820856, 44.725892], [-63.821561, 44.725366], [-63.821716, 44.72537], [-63.821875, 44.725294], [-63.822197, 44.72502], [-63.822703, 44.725113], [-63.822834, 44.725313], [-63.823345, 44.725757], [-63.82357, 44.725662], [-63.824606, 44.725235], [-63.823592, 44.724019], [-63.823857, 44.723459], [-63.825417, 44.723869], [-63.826146, 44.724387], [-63.826116, 44.725104], [-63.826262, 44.725719], [-63.82793, 44.726372], [-63.828319, 44.726435], [-63.831811, 44.726949], [-63.833098, 44.725912], [-63.835158, 44.726461], [-63.83918, 44.728236], [-63.840351, 44.728016], [-63.841156, 44.727491], [-63.84251, 44.725992], [-63.843827, 44.724875], [-63.844972, 44.7236], [-63.844321, 44.722864], [-63.844352, 44.722853], [-63.844025, 44.722483], [-63.84385, 44.72238], [-63.843877, 44.722357], [-63.84311, 44.721903], [-63.842505, 44.721556], [-63.841789, 44.721123], [-63.839767, 44.719929], [-63.838523, 44.719223], [-63.836725, 44.718261], [-63.835682, 44.717615], [-63.834904, 44.71717], [-63.834703, 44.717047], [-63.836374, 44.715488]]]}}, {"type": "Feature", "properties": {"name": "Yankeetown"}, "geometry": {"type": "Polygon", "coordinates": [[[-63.825084, 44.705952], [-63.825706, 44.706166], [-63.825975, 44.70657], [-63.826822, 44.706974], [-63.827562, 44.707089], [-63.82723, 44.709422], [-63.826586, 44.710039], [-63.826286, 44.710139], [-63.82441, 44.709626], [-63.823792, 44.710203], [-63.823507, 44.710756], [-63.824, 44.710985], [-63.822992, 44.712098], [-63.820736, 44.713906], [-63.819717, 44.713846], [-63.819547, 44.713102], [-63.820453, 44.712035], [-63.820793, 44.71121], [-63.821614, 44.711009], [-63.822463, 44.710184], [-63.821359, 44.709097], [-63.81983, 44.708132], [-63.818782, 44.70783], [-63.818896, 44.707488], [-63.817848, 44.706502], [-63.816574, 44.705858], [-63.818103, 44.704449], [-63.814564, 44.702738], [-63.814252, 44.70296], [-63.816659, 44.704369], [-63.815385, 44.705596], [-63.810942, 44.703062], [-63.810326, 44.702747], [-63.8086, 44.702204], [-63.809956, 44.700837], [-63.810622, 44.700399], [-63.811731, 44.700942], [-63.813678, 44.699225], [-63.815477, 44.699891], [-63.817622, 44.70124], [-63.820777, 44.703132], [-63.822256, 44.703973], [-63.824474, 44.705165], [-63.825084, 44.705952]]]}}, {"type": "Feature", "properties": {"name": "Halliburton Subdivision"}, "geometry": {"type": "Polygon", "coordinates": [[[-63.82668, 44.685074], [-63.826227, 44.684828], [-63.82439, 44.683985], [-63.823428, 44.683615], [-63.822439, 44.683281], [-63.821428, 44.682985], [-63.820398, 44.682727], [-63.819347, 44.682508], [-63.818833, 44.682421], [-63.818426, 44.683814], [-63.816742, 44.684441], [-63.815218, 44.682886], [-63.808318, 44.686113], [-63.807049, 44.68569], [-63.805705, 44.687819], [-63.818366, 44.695343], [-63.817124, 44.696469], [-63.818379, 44.69729], [-63.820353, 44.698067], [-63.821898, 44.699349], [-63.827391, 44.703284], [-63.829022, 44.70124], [-63.83076, 44.700981], [-63.833163, 44.702765], [-63.831468, 44.703634], [-63.829837, 44.704855], [-63.840823, 44.710909], [-63.843613, 44.709658], [-63.84799, 44.70763], [-63.849759, 44.706656], [-63.850335, 44.706512], [-63.851028, 44.706215], [-63.852086, 44.705776], [-63.853077, 44.705353], [-63.853641, 44.705088], [-63.853844, 44.70501], [-63.854266, 44.704805], [-63.854788, 44.704538], [-63.8551, 44.704362], [-63.85501, 44.70479], [-63.855404, 44.704492], [-63.855595, 44.704406], [-63.855416, 44.704303], [-63.855118, 44.704188], [-63.855472, 44.704041], [-63.856533, 44.703142], [-63.857037, 44.702696], [-63.856983, 44.702668], [-63.857016, 44.702629], [-63.857048, 44.702577], [-63.857066, 44.702533], [-63.857076, 44.702488], [-63.857078, 44.70243], [-63.857071, 44.702385], [-63.857057, 44.70234], [-63.85701, 44.702258], [-63.856845, 44.702119], [-63.856763, 44.702082], [-63.856156, 44.701771], [-63.854869, 44.701609], [-63.85421, 44.701541], [-63.853272, 44.701464], [-63.852472, 44.701405], [-63.852111, 44.701382], [-63.851371, 44.701304], [-63.851094, 44.701481], [-63.850983, 44.701459], [-63.849695, 44.701239], [-63.848367, 44.700893], [-63.847694, 44.700675], [-63.847369, 44.700551], [-63.847034, 44.700412], [-63.846491, 44.700172], [-63.845953, 44.699895], [-63.845533, 44.699658], [-63.844952, 44.69929], [-63.844691, 44.699105], [-63.844406, 44.698891], [-63.842358, 44.697238], [-63.842034, 44.696986], [-63.841109, 44.696243], [-63.840515, 44.695749], [-63.840002, 44.695335], [-63.835275, 44.691545], [-63.835327, 44.691513], [-63.835349, 44.691495], [-63.835356, 44.691481], [-63.835315, 44.69143], [-63.83531, 44.691413], [-63.835335, 44.691339], [-63.835333, 44.691318], [-63.835266, 44.691296], [-63.835246, 44.691283], [-63.835114, 44.691179], [-63.835056, 44.691111], [-63.835011, 44.69108], [-63.834956, 44.691053], [-63.834888, 44.691035], [-63.834851, 44.69102], [-63.83459, 44.690877], [-63.834559, 44.690845], [-63.834515, 44.690703], [-63.834454, 44.690545], [-63.834415, 44.690502], [-63.834379, 44.690477], [-63.834278, 44.690426], [-63.834204, 44.690398], [-63.83408, 44.69036], [-63.833818, 44.690328], [-63.833726, 44.690286], [-63.8337, 44.690277], [-63.829851, 44.687176], [-63.828854, 44.686426], [-63.827933, 44.685805], [-63.827097, 44.6853], [-63.82668, 44.685074]]]}}, {"type": "Feature", "properties": {"name": "Glen Arbour"}, "geometry": {"type": "Polygon", "coordinates": [[[-63.778643, 44.800479], [-63.77899, 44.800332], [-63.780942, 44.797862], [-63.784579, 44.793279], [-63.792238, 44.783284], [-63.79042, 44.782561], [-63.791817, 44.780827], [-63.795317, 44.776393], [-63.804432, 44.764869], [-63.803333, 44.764101], [-63.813216, 44.757183], [-63.808533, 44.754335], [-63.810031, 44.754706], [-63.808434, 44.753734], [-63.803462, 44.750692], [-63.808129, 44.747269], [-63.809512, 44.746231], [-63.809722, 44.746089], [-63.795376, 44.737528], [-63.790913, 44.734967], [-63.788166, 44.733869], [-63.779497, 44.733869], [-63.775448, 44.733726], [-63.764113, 44.742551], [-63.76012, 44.746078], [-63.761737, 44.747071], [-63.764942, 44.749111], [-63.764419, 44.749644], [-63.760922, 44.753636], [-63.754295, 44.761252], [-63.753027, 44.76274], [-63.748434, 44.767993], [-63.748268, 44.76825], [-63.746785, 44.771577], [-63.745801, 44.773698], [-63.7476, 44.774], [-63.7506, 44.7751], [-63.7577, 44.7791], [-63.7602, 44.7803], [-63.7631, 44.7817], [-63.7655, 44.783], [-63.7669, 44.7841], [-63.7676, 44.7844], [-63.7682, 44.7849], [-63.7686, 44.785], [-63.7703, 44.7856], [-63.7708, 44.7855], [-63.7721, 44.7846], [-63.7731, 44.7845], [-63.7735, 44.7845], [-63.7754, 44.7849], [-63.7753, 44.7853], [-63.7749, 44.7862], [-63.7749, 44.7866], [-63.775, 44.7872], [-63.7728, 44.79], [-63.773, 44.7908], [-63.7752, 44.7927], [-63.776003, 44.793503], [-63.7764, 44.7939], [-63.777411, 44.79509], [-63.7781, 44.7959], [-63.7791, 44.7965], [-63.7795, 44.7968], [-63.7794, 44.797], [-63.7792, 44.797], [-63.7789, 44.7975], [-63.7786, 44.7977], [-63.7776, 44.798], [-63.7774, 44.7983], [-63.7774, 44.7985], [-63.7779, 44.7992], [-63.7785, 44.7999], [-63.778643, 44.800479]]]}}, {"type": "Feature", "properties": {"name": "Stillwater Lake"}, "geometry": {"type": "Polygon", "coordinates": [[[-63.82668, 44.685074], [-63.826227, 44.684828], [-63.82439, 44.683985], [-63.823428, 44.683615], [-63.822439, 44.683281], [-63.821428, 44.682985], [-63.820398, 44.682727], [-63.819347, 44.682508], [-63.818833, 44.682421], [-63.818426, 44.683814], [-63.816742, 44.684441], [-63.815218, 44.682886], [-63.808318, 44.686113], [-63.807049, 44.68569], [-63.805705, 44.687819], [-63.818366, 44.695343], [-63.817124, 44.696469], [-63.797718, 44.684878], [-63.795273, 44.683012], [-63.792545, 44.685802], [-63.798622, 44.689437], [-63.814331, 44.698856], [-63.818816, 44.701472], [-63.823659, 44.704337], [-63.828104, 44.707006], [-63.835851, 44.711607], [-63.836864, 44.712212], [-63.837294, 44.712475], [-63.838479, 44.713176], [-63.83685, 44.714962], [-63.836647, 44.715154], [-63.836374, 44.715488], [-63.834703, 44.717047], [-63.834904, 44.71717], [-63.835682, 44.717615], [-63.836725, 44.718261], [-63.838523, 44.719223], [-63.839767, 44.719929], [-63.841789, 44.721123], [-63.842505, 44.721556], [-63.84311, 44.721903], [-63.843877, 44.722357], [-63.84385, 44.72238], [-63.844025, 44.722483], [-63.844352, 44.722853], [-63.844321, 44.722864], [-63.844972, 44.7236], [-63.845056, 44.723592], [-63.84557, 44.724172], [-63.846201, 44.723731], [-63.846802, 44.724093], [-63.847192, 44.724135], [-63.847009, 44.722092], [-63.84708, 44.720364], [-63.846982, 44.719466], [-63.846793, 44.719073], [-63.846447, 44.717242], [-63.847067, 44.715794], [-63.8472, 44.715403], [-63.846966, 44.712282], [-63.848579, 44.710624], [-63.849441, 44.70963], [-63.849819, 44.708672], [-63.849907, 44.707504], [-63.850169, 44.707179], [-63.849984, 44.706975], [-63.849882, 44.70682], [-63.849759, 44.706656], [-63.850335, 44.706512], [-63.851028, 44.706215], [-63.852086, 44.705776], [-63.853077, 44.705353], [-63.853641, 44.705088], [-63.853844, 44.70501], [-63.854266, 44.704805], [-63.854788, 44.704538], [-63.8551, 44.704362], [-63.85501, 44.70479], [-63.855404, 44.704492], [-63.855595, 44.704406], [-63.855416, 44.704303], [-63.855118, 44.704188], [-63.855472, 44.704041], [-63.856533, 44.703142], [-63.857037, 44.702696], [-63.856983, 44.702668], [-63.857016, 44.702629], [-63.857048, 44.702577], [-63.857066, 44.702533], [-63.857076, 44.702488], [-63.857078, 44.70243], [-63.857071, 44.702385], [-63.857057, 44.70234], [-63.85701, 44.702258], [-63.856845, 44.702119], [-63.856763, 44.702082], [-63.856156, 44.701771], [-63.854869, 44.701609], [-63.85421, 44.701541], [-63.853272, 44.701464], [-63.852472, 44.701405], [-63.852111, 44.701382], [-63.851371, 44.701304], [-63.851094, 44.701481], [-63.850983, 44.701459], [-63.849695, 44.701239], [-63.848367, 44.700893], [-63.847694, 44.700675], [-63.847369, 44.700551], [-63.847034, 44.700412], [-63.846491, 44.700172], [-63.845953, 44.699895], [-63.845533, 44.699658], [-63.844952, 44.69929], [-63.844691, 44.699105], [-63.844406, 44.698891], [-63.842358, 44.697238], [-63.842034, 44.696986], [-63.841109, 44.696243], [-63.840515, 44.695749], [-63.840002, 44.695335], [-63.835275, 44.691545], [-63.835327, 44.691513], [-63.835349, 44.691495], [-63.835356, 44.691481], [-63.835315, 44.69143], [-63.83531, 44.691413], [-63.835335, 44.691339], [-63.835333, 44.691318], [-63.835266, 44.691296], [-63.835246, 44.691283], [-63.835114, 44.691179], [-63.835056, 44.691111], [-63.835011, 44.69108], [-63.834956, 44.691053], [-63.834888, 44.691035], [-63.834851, 44.69102], [-63.83459, 44.690877], [-63.834559, 44.690845], [-63.834515, 44.690703], [-63.834454, 44.690545], [-63.834415, 44.690502], [-63.834379, 44.690477], [-63.834278, 44.690426], [-63.834204, 44.690398], [-63.83408, 44.69036], [-63.833818, 44.690328], [-63.833726, 44.690286], [-63.8337, 44.690277], [-63.829851, 44.687176], [-63.828854, 44.686426], [-63.827933, 44.685805], [-63.827097, 44.6853], [-63.82668, 44.685074]]]}}, {"type": "Feature", "properties": {"name": "Voyageur Lakes"}, "geometry": {"type": "Polygon", "coordinates": [[[-63.756852, 44.716288], [-63.756921, 44.716514], [-63.757035, 44.716532], [-63.757463, 44.716916], [-63.757594, 44.717397], [-63.757809, 44.717429], [-63.758218, 44.717164], [-63.758451, 44.717059], [-63.758749, 44.717076], [-63.759265, 44.717193], [-63.759906, 44.717818], [-63.760201, 44.718196], [-63.760362, 44.718633], [-63.76039, 44.7188], [-63.760443, 44.719124], [-63.760401, 44.719629], [-63.760386, 44.720455], [-63.759986, 44.720483], [-63.760047, 44.720626], [-63.760739, 44.72094], [-63.760536, 44.721168], [-63.760349, 44.721075], [-63.760237, 44.721195], [-63.760461, 44.721287], [-63.760252, 44.721623], [-63.759955, 44.721853], [-63.759054, 44.722381], [-63.758918, 44.722398], [-63.75872, 44.722414], [-63.758631, 44.72257], [-63.758188, 44.722972], [-63.75798, 44.723905], [-63.757562, 44.724537], [-63.75702, 44.725091], [-63.756692, 44.725239], [-63.75634, 44.725323], [-63.755768, 44.725448], [-63.755174, 44.725547], [-63.754829, 44.725535], [-63.754194, 44.725379], [-63.753625, 44.725159], [-63.753516, 44.725107], [-63.753442, 44.725039], [-63.753365, 44.724964], [-63.753372, 44.724926], [-63.753374, 44.724913], [-63.753369, 44.724884], [-63.75332, 44.724592], [-63.753372, 44.724507], [-63.753521, 44.724268], [-63.753255, 44.723966], [-63.752908, 44.723343], [-63.752844, 44.723002], [-63.752761, 44.722746], [-63.751575, 44.7225], [-63.751486, 44.722682], [-63.75136, 44.722855], [-63.751213, 44.723023], [-63.751004, 44.723226], [-63.750929, 44.723336], [-63.75088, 44.723438], [-63.74942, 44.723076], [-63.749202, 44.723274], [-63.748924, 44.723268], [-63.748718, 44.723475], [-63.748681, 44.723758], [-63.748255, 44.724155], [-63.74789, 44.724249], [-63.7474, 44.724296], [-63.747328, 44.724229], [-63.747174, 44.724366], [-63.745639, 44.72566], [-63.744736, 44.726918], [-63.744815, 44.727166], [-63.746441, 44.727747], [-63.74835, 44.728351], [-63.754569, 44.730765], [-63.762245, 44.733077], [-63.765419, 44.733576], [-63.768671, 44.733688], [-63.775448, 44.733726], [-63.775842, 44.733605], [-63.77633, 44.733271], [-63.775862, 44.732822], [-63.777879, 44.731289], [-63.784046, 44.728077], [-63.791084, 44.719905], [-63.792458, 44.71347], [-63.788166, 44.707462], [-63.774047, 44.702231], [-63.773855, 44.702305], [-63.772481, 44.70283], [-63.771616, 44.702501], [-63.77155, 44.701396], [-63.770984, 44.70018], [-63.769812, 44.700038], [-63.768532, 44.698723], [-63.767846, 44.698738], [-63.767374, 44.700767], [-63.768532, 44.701957], [-63.768876, 44.702841], [-63.768897, 44.70365], [-63.768232, 44.705312], [-63.768447, 44.706776], [-63.766601, 44.708865], [-63.765593, 44.709185], [-63.764799, 44.71007], [-63.764158, 44.71048], [-63.763855, 44.71065], [-63.763855, 44.713532], [-63.763275, 44.714172], [-63.763597, 44.715499], [-63.76231, 44.7153], [-63.761623, 44.713028], [-63.759756, 44.713943], [-63.759112, 44.714934], [-63.756852, 44.716288]]]}}, {"type": "Feature", "properties": {"name": "Uplands Park"}, "geometry": {"type": "Polygon", "coordinates": [[[-63.744815, 44.727166], [-63.746441, 44.727747], [-63.74835, 44.728351], [-63.754569, 44.730765], [-63.762245, 44.733077], [-63.765419, 44.733576], [-63.768671, 44.733688], [-63.775448, 44.733726], [-63.775842, 44.733605], [-63.77633, 44.733271], [-63.775862, 44.732822], [-63.777879, 44.731289], [-63.784046, 44.728077], [-63.791084, 44.719905], [-63.792458, 44.71347], [-63.788166, 44.707462], [-63.774047, 44.702231], [-63.775921, 44.697494], [-63.777029, 44.69704], [-63.778797, 44.696314], [-63.777967, 44.695777], [-63.777195, 44.695278], [-63.774108, 44.693282], [-63.773422, 44.693813], [-63.772257, 44.693046], [-63.772029, 44.692892], [-63.770922, 44.692126], [-63.769688, 44.691322], [-63.767007, 44.693411], [-63.763818, 44.695896], [-63.759477, 44.69324], [-63.758801, 44.692815], [-63.758492, 44.692633], [-63.756586, 44.691454], [-63.75551, 44.692786], [-63.755204, 44.693151], [-63.753177, 44.695676], [-63.752991, 44.695875], [-63.752958, 44.695916], [-63.750087, 44.699509], [-63.747625, 44.702626], [-63.747573, 44.702637], [-63.744835, 44.703217], [-63.739321, 44.699653], [-63.739038, 44.699499], [-63.738208, 44.698961], [-63.736146, 44.697626], [-63.73361, 44.695983], [-63.733506, 44.695695], [-63.732973, 44.695346], [-63.731845, 44.694607], [-63.73067, 44.694086], [-63.729501, 44.693771], [-63.724727, 44.692518], [-63.721041, 44.699901], [-63.720441, 44.701103], [-63.722105, 44.701792], [-63.72467, 44.702863], [-63.729375, 44.704826], [-63.73071, 44.709233], [-63.730666, 44.709246], [-63.729635, 44.709492], [-63.72943, 44.70956], [-63.729429, 44.709558], [-63.729423, 44.709548], [-63.729416, 44.709538], [-63.729409, 44.709527], [-63.729402, 44.709517], [-63.729395, 44.709507], [-63.729388, 44.709497], [-63.72938, 44.709486], [-63.729373, 44.709476], [-63.729358, 44.709456], [-63.72935, 44.709446], [-63.729342, 44.709436], [-63.729326, 44.709417], [-63.729318, 44.709407], [-63.729309, 44.709397], [-63.729292, 44.709378], [-63.729287, 44.709371], [-63.729213, 44.709289], [-63.729, 44.709387], [-63.728801, 44.709166], [-63.727617, 44.709356], [-63.727962, 44.709745], [-63.727816, 44.709862], [-63.727232, 44.710102], [-63.727166, 44.710129], [-63.726088, 44.710571], [-63.725505, 44.71081], [-63.724921, 44.71105], [-63.724432, 44.711229], [-63.724095, 44.710654], [-63.723676, 44.710278], [-63.723262, 44.709908], [-63.722837, 44.709527], [-63.722418, 44.709151], [-63.722793, 44.708939], [-63.722195, 44.708402], [-63.720959, 44.709103], [-63.721348, 44.709452], [-63.721339, 44.709453], [-63.721328, 44.709455], [-63.721315, 44.709457], [-63.721303, 44.709459], [-63.721292, 44.709463], [-63.72128, 44.709466], [-63.721269, 44.70947], [-63.721258, 44.709474], [-63.721248, 44.709478], [-63.721237, 44.709483], [-63.721227, 44.709489], [-63.721218, 44.709494], [-63.721209, 44.7095], [-63.7212, 44.709507], [-63.721192, 44.709513], [-63.721184, 44.70952], [-63.721177, 44.709527], [-63.72117, 44.709534], [-63.721164, 44.709542], [-63.721158, 44.70955], [-63.721153, 44.709558], [-63.721149, 44.709565], [-63.720801, 44.709252], [-63.719597, 44.709935], [-63.720195, 44.710472], [-63.720794, 44.711009], [-63.721393, 44.711545], [-63.721628, 44.711794], [-63.721186, 44.712039], [-63.7208, 44.712253], [-63.720767, 44.71227], [-63.720647, 44.712357], [-63.720138, 44.713016], [-63.721781, 44.714069], [-63.723069, 44.714954], [-63.7235, 44.714466], [-63.724845, 44.714927], [-63.7242, 44.71553], [-63.725071, 44.716156], [-63.732493, 44.721064], [-63.733052, 44.721444], [-63.732153, 44.722689], [-63.732104, 44.72282], [-63.731541, 44.723644], [-63.731404, 44.723845], [-63.731409, 44.72387], [-63.731344, 44.724003], [-63.730358, 44.724141], [-63.730094, 44.724974], [-63.725291, 44.730405], [-63.723069, 44.732801], [-63.712711, 44.745137], [-63.713902, 44.745709], [-63.717813, 44.747804], [-63.718394, 44.747928], [-63.718628, 44.748094], [-63.720884, 44.749482], [-63.724709, 44.751644], [-63.727402, 44.748467], [-63.73225, 44.742713], [-63.73237, 44.742555], [-63.732769, 44.741948], [-63.734251, 44.740358], [-63.744815, 44.727166]]]}}, {"type": "Feature", "properties": {"name": "Kingswood"}, "geometry": {"type": "Polygon", "coordinates": [[[-63.738332, 44.714362], [-63.73724, 44.715596], [-63.734951, 44.718182], [-63.734811, 44.71966], [-63.734388, 44.721056], [-63.733899, 44.721189], [-63.733494, 44.721253], [-63.733052, 44.721444], [-63.732153, 44.722689], [-63.732104, 44.72282], [-63.731541, 44.723644], [-63.731404, 44.723845], [-63.733144, 44.723664], [-63.734527, 44.72383], [-63.73619, 44.724263], [-63.739473, 44.725651], [-63.739817, 44.725734], [-63.740085, 44.725822], [-63.740313, 44.725888], [-63.742153, 44.726357], [-63.74309, 44.726604], [-63.744815, 44.727166], [-63.744736, 44.726918], [-63.745639, 44.72566], [-63.747174, 44.724366], [-63.747328, 44.724229], [-63.750841, 44.721262], [-63.751527, 44.720713], [-63.751922, 44.720371], [-63.752251, 44.720086], [-63.752847, 44.719783], [-63.7537, 44.719591], [-63.753327, 44.719265], [-63.753282, 44.719138], [-63.753404, 44.718974], [-63.753453, 44.7188], [-63.753546, 44.718467], [-63.753417, 44.717947], [-63.753204, 44.717556], [-63.753312, 44.717356], [-63.753452, 44.717319], [-63.753814, 44.717417], [-63.753838, 44.717517], [-63.754302, 44.717834], [-63.754879, 44.718277], [-63.754996, 44.718585], [-63.755205, 44.718645], [-63.755248, 44.718717], [-63.755458, 44.718882], [-63.755533, 44.718853], [-63.755608, 44.718743], [-63.755705, 44.718562], [-63.755873, 44.718473], [-63.756044, 44.718305], [-63.756214, 44.718136], [-63.756341, 44.718001], [-63.75612, 44.717877], [-63.756048, 44.717679], [-63.755572, 44.717397], [-63.75507, 44.717185], [-63.754538, 44.716602], [-63.754515, 44.716483], [-63.754706, 44.716415], [-63.755262, 44.716517], [-63.75646, 44.716493], [-63.756921, 44.716514], [-63.756852, 44.716288], [-63.759112, 44.714934], [-63.759756, 44.713943], [-63.761623, 44.713028], [-63.76231, 44.7153], [-63.763597, 44.715499], [-63.763275, 44.714172], [-63.763855, 44.713532], [-63.763855, 44.71065], [-63.764158, 44.71048], [-63.764799, 44.71007], [-63.765593, 44.709185], [-63.766601, 44.708865], [-63.768447, 44.706776], [-63.768232, 44.705312], [-63.768897, 44.70365], [-63.768876, 44.702841], [-63.768532, 44.701957], [-63.767374, 44.700767], [-63.767846, 44.698738], [-63.768532, 44.698723], [-63.769812, 44.700038], [-63.770984, 44.70018], [-63.77155, 44.701396], [-63.771616, 44.702501], [-63.772481, 44.70283], [-63.773855, 44.702305], [-63.774047, 44.702231], [-63.775921, 44.697494], [-63.777029, 44.69704], [-63.778797, 44.696314], [-63.777967, 44.695777], [-63.777195, 44.695278], [-63.774108, 44.693282], [-63.773422, 44.693813], [-63.772257, 44.693046], [-63.772029, 44.692892], [-63.770922, 44.692126], [-63.769688, 44.691322], [-63.767007, 44.693411], [-63.763818, 44.695896], [-63.759477, 44.69324], [-63.758801, 44.692815], [-63.758492, 44.692633], [-63.756586, 44.691454], [-63.75551, 44.692786], [-63.755204, 44.693151], [-63.753177, 44.695676], [-63.752991, 44.695875], [-63.752958, 44.695916], [-63.750087, 44.699509], [-63.747625, 44.702626], [-63.747573, 44.702637], [-63.744835, 44.703217], [-63.739321, 44.699653], [-63.739038, 44.699499], [-63.738208, 44.698961], [-63.736146, 44.697626], [-63.73361, 44.695983], [-63.733506, 44.695695], [-63.732973, 44.695346], [-63.731845, 44.694607], [-63.73067, 44.694086], [-63.729501, 44.693771], [-63.724727, 44.692518], [-63.721041, 44.699901], [-63.720441, 44.701103], [-63.722105, 44.701792], [-63.72467, 44.702863], [-63.725075, 44.702418], [-63.730053, 44.704542], [-63.730407, 44.705613], [-63.730955, 44.707538], [-63.731754, 44.709952], [-63.73207, 44.710964], [-63.732172, 44.711328], [-63.732285, 44.711543], [-63.732336, 44.711698], [-63.732446, 44.712222], [-63.732542, 44.712479], [-63.733395, 44.712594], [-63.738513, 44.714157], [-63.738332, 44.714362]]]}}, {"type": "Feature", "properties": {"name": "Kingswood North"}, "geometry": {"type": "Polygon", "coordinates": [[[-63.7095, 44.748971], [-63.712711, 44.745137], [-63.713902, 44.745709], [-63.717813, 44.747804], [-63.718394, 44.747928], [-63.718628, 44.748094], [-63.720884, 44.749482], [-63.724709, 44.751644], [-63.73096, 44.753042], [-63.728364, 44.756654], [-63.725145, 44.758924], [-63.724694, 44.760844], [-63.721304, 44.764424], [-63.718922, 44.764988], [-63.714652, 44.771203], [-63.709272, 44.77086], [-63.7083, 44.7712], [-63.7078, 44.7708], [-63.7073, 44.7705], [-63.7069, 44.7704], [-63.7064, 44.7702], [-63.706, 44.7702], [-63.7059, 44.7703], [-63.7055, 44.7702], [-63.7053, 44.77], [-63.7051, 44.7699], [-63.705, 44.7697], [-63.7048, 44.7696], [-63.7046, 44.7693], [-63.704, 44.7688], [-63.7039, 44.7686], [-63.7039, 44.7682], [-63.7041, 44.768], [-63.7042, 44.7678], [-63.7043, 44.7674], [-63.7045, 44.7671], [-63.7046, 44.7668], [-63.7046, 44.7666], [-63.7045, 44.7663], [-63.7043, 44.7661], [-63.7042, 44.7658], [-63.7042, 44.7656], [-63.7041, 44.7654], [-63.703305, 44.764901], [-63.7033, 44.7646], [-63.7037, 44.7643], [-63.704, 44.7637], [-63.7039, 44.7635], [-63.7039, 44.7633], [-63.7046, 44.7629], [-63.7046, 44.7628], [-63.7044, 44.7624], [-63.7044, 44.7619], [-63.7046, 44.7617], [-63.7048, 44.7616], [-63.7051, 44.7616], [-63.7056, 44.7615], [-63.7057, 44.7612], [-63.7056, 44.7611], [-63.7054, 44.7611], [-63.7053, 44.761], [-63.7053, 44.7608], [-63.7055, 44.7608], [-63.7055, 44.7607], [-63.7054, 44.7606], [-63.7053, 44.7606], [-63.7053, 44.7605], [-63.7052, 44.7605], [-63.7051, 44.7604], [-63.705, 44.7601], [-63.7047, 44.7598], [-63.7044, 44.7598], [-63.7042, 44.7596], [-63.7038, 44.7594], [-63.7034, 44.7594], [-63.7028, 44.7591], [-63.7024, 44.759], [-63.7023, 44.7589], [-63.7019, 44.7587], [-63.70181, 44.758498], [-63.701821, 44.758482], [-63.708535, 44.750126], [-63.708622, 44.750032], [-63.7095, 44.748971]]]}}, {"type": "Feature", "properties": {"name": "Kingswood North"}, "geometry": {"type": "Polygon", "coordinates": [[[-63.744815, 44.727166], [-63.734251, 44.740358], [-63.732769, 44.741948], [-63.73237, 44.742555], [-63.73225, 44.742713], [-63.727402, 44.748467], [-63.724709, 44.751644], [-63.720884, 44.749482], [-63.718628, 44.748094], [-63.718394, 44.747928], [-63.717813, 44.747804], [-63.713902, 44.745709], [-63.712711, 44.745137], [-63.723069, 44.732801], [-63.725291, 44.730405], [-63.730094, 44.724974], [-63.730358, 44.724141], [-63.731344, 44.724003], [-63.731409, 44.72387], [-63.731404, 44.723845], [-63.733144, 44.723664], [-63.734527, 44.72383], [-63.73619, 44.724263], [-63.739473, 44.725651], [-63.739817, 44.725734], [-63.740085, 44.725822], [-63.740313, 44.725888], [-63.742153, 44.726357], [-63.74309, 44.726604], [-63.744815, 44.727166]]]}}, {"type": "Feature", "properties": {"name": "Lucasville"}, "geometry": {"type": "Polygon", "coordinates": [[[-63.709272, 44.77086], [-63.7083, 44.7712], [-63.7078, 44.7708], [-63.7073, 44.7705], [-63.7069, 44.7704], [-63.7064, 44.7702], [-63.706, 44.7702], [-63.7059, 44.7703], [-63.7055, 44.7702], [-63.7053, 44.77], [-63.7051, 44.7699], [-63.705, 44.7697], [-63.7048, 44.7696], [-63.7046, 44.7693], [-63.704, 44.7688], [-63.7039, 44.7686], [-63.7039, 44.7682], [-63.7041, 44.768], [-63.7042, 44.7678], [-63.7043, 44.7674], [-63.7045, 44.7671], [-63.7046, 44.7668], [-63.7046, 44.7666], [-63.7045, 44.7663], [-63.7043, 44.7661], [-63.7042, 44.7658], [-63.7042, 44.7656], [-63.7041, 44.7654], [-63.703305, 44.764901], [-63.7033, 44.7646], [-63.7037, 44.7643], [-63.704, 44.7637], [-63.7039, 44.7635], [-63.7039, 44.7633], [-63.7046, 44.7629], [-63.7046, 44.7628], [-63.7044, 44.7624], [-63.7044, 44.7619], [-63.7046, 44.7617], [-63.7048, 44.7616], [-63.7051, 44.7616], [-63.7056, 44.7615], [-63.7057, 44.7612], [-63.7056, 44.7611], [-63.7054, 44.7611], [-63.7053, 44.761], [-63.7053, 44.7608], [-63.7055, 44.7608], [-63.7055, 44.7607], [-63.7054, 44.7606], [-63.7053, 44.7606], [-63.7053, 44.7605], [-63.7052, 44.7605], [-63.7051, 44.7604], [-63.705, 44.7601], [-63.7047, 44.7598], [-63.7044, 44.7598], [-63.7042, 44.7596], [-63.7038, 44.7594], [-63.7034, 44.7594], [-63.7028, 44.7591], [-63.7024, 44.759], [-63.7023, 44.7589], [-63.7019, 44.7587], [-63.70181, 44.758498], [-63.701821, 44.758482], [-63.708535, 44.750126], [-63.708622, 44.750032], [-63.7095, 44.748971], [-63.712711, 44.745137], [-63.713902, 44.745709], [-63.717813, 44.747804], [-63.718394, 44.747928], [-63.718628, 44.748094], [-63.720884, 44.749482], [-63.724709, 44.751644], [-63.727402, 44.748467], [-63.73225, 44.742713], [-63.73237, 44.742555], [-63.732769, 44.741948], [-63.734251, 44.740358], [-63.735846, 44.741639], [-63.737614, 44.742817], [-63.74145, 44.738318], [-63.744581, 44.734671], [-63.746368, 44.7361], [-63.748143, 44.737484], [-63.749411, 44.738503], [-63.74936, 44.738533], [-63.750209, 44.739092], [-63.750353, 44.739164], [-63.75235, 44.739639], [-63.764113, 44.742551], [-63.76012, 44.746078], [-63.761737, 44.747071], [-63.764942, 44.749111], [-63.764419, 44.749644], [-63.760922, 44.753636], [-63.754295, 44.761252], [-63.753027, 44.76274], [-63.748434, 44.767993], [-63.748268, 44.76825], [-63.746785, 44.771577], [-63.745801, 44.773698], [-63.743324, 44.774302], [-63.740709, 44.774927], [-63.739648, 44.775092], [-63.738859, 44.774963], [-63.738514, 44.774765], [-63.738218, 44.774679], [-63.737858, 44.774765], [-63.737559, 44.77491], [-63.73714, 44.775207], [-63.736555, 44.775818], [-63.736104, 44.776023], [-63.735229, 44.776049], [-63.734858, 44.776032], [-63.73404, 44.775266], [-63.733346, 44.775146], [-63.731699, 44.775047], [-63.73138, 44.775061], [-63.731262, 44.77502], [-63.730236, 44.775089], [-63.726647, 44.775145], [-63.722927, 44.775039], [-63.722453, 44.774389], [-63.721468, 44.773432], [-63.720865, 44.773285], [-63.719149, 44.773281], [-63.718004, 44.773385], [-63.717766, 44.773575], [-63.717658, 44.774093], [-63.717016, 44.774336], [-63.716265, 44.774355], [-63.714154, 44.77454], [-63.713915, 44.774531], [-63.713541, 44.774405], [-63.713175, 44.774217], [-63.712526, 44.774032], [-63.712371, 44.773743], [-63.712249, 44.77366], [-63.712019, 44.773612], [-63.711542, 44.773613], [-63.711155, 44.773812], [-63.710924, 44.7738], [-63.710615, 44.773669], [-63.709333, 44.773284], [-63.709091, 44.773056], [-63.709035, 44.77286], [-63.709103, 44.772711], [-63.708943, 44.772179], [-63.709272, 44.77086]]]}}, {"type": "Feature", "properties": {"name": "Upper Hammonds Plains"}, "geometry": {"type": "Polygon", "coordinates": [[[-63.862991, 44.731352], [-63.864018, 44.731861], [-63.864078, 44.731836], [-63.86422, 44.731755], [-63.86426, 44.73174], [-63.864287, 44.731734], [-63.864275, 44.731753], [-63.864229, 44.7318], [-63.864188, 44.731892], [-63.864188, 44.731907], [-63.864187, 44.731929], [-63.864202, 44.731957], [-63.864282, 44.732026], [-63.864312, 44.732048], [-63.864338, 44.732067], [-63.864418, 44.732104], [-63.864482, 44.732144], [-63.86456, 44.732178], [-63.864639, 44.732245], [-63.864729, 44.732304], [-63.864772, 44.732353], [-63.864792, 44.732371], [-63.864867, 44.732422], [-63.864941, 44.732481], [-63.865004, 44.732518], [-63.865098, 44.73259], [-63.86515, 44.732636], [-63.865194, 44.732689], [-63.865223, 44.732734], [-63.865243, 44.73279], [-63.865243, 44.73282], [-63.865229, 44.732861], [-63.865182, 44.732956], [-63.865152, 44.732994], [-63.865075, 44.733059], [-63.865027, 44.733108], [-63.864947, 44.733217], [-63.864926, 44.733275], [-63.86492, 44.733333], [-63.864872, 44.733405], [-63.864871, 44.733435], [-63.864895, 44.733513], [-63.864905, 44.733588], [-63.864906, 44.733653], [-63.864921, 44.733692], [-63.864961, 44.733756], [-63.865015, 44.733816], [-63.865059, 44.733835], [-63.865162, 44.733858], [-63.865218, 44.733881], [-63.865288, 44.733927], [-63.865311, 44.733946], [-63.865365, 44.733999], [-63.865422, 44.734068], [-63.865458, 44.734095], [-63.865482, 44.734102], [-63.865569, 44.734112], [-63.8656, 44.734122], [-63.865626, 44.734139], [-63.865634, 44.734161], [-63.865621, 44.734221], [-63.865625, 44.734238], [-63.865638, 44.734261], [-63.865677, 44.734298], [-63.865729, 44.734366], [-63.865779, 44.734451], [-63.865826, 44.734516], [-63.865847, 44.734591], [-63.865857, 44.734609], [-63.865924, 44.734664], [-63.865931, 44.734672], [-63.865938, 44.734701], [-63.865913, 44.734771], [-63.865915, 44.734828], [-63.865896, 44.734865], [-63.865872, 44.734901], [-63.865862, 44.734915], [-63.865842, 44.734938], [-63.865776, 44.734985], [-63.865736, 44.734998], [-63.865656, 44.735007], [-63.86563, 44.735013], [-63.8656, 44.735035], [-63.865584, 44.735056], [-63.865563, 44.735111], [-63.865558, 44.735217], [-63.865506, 44.735264], [-63.865392, 44.735387], [-63.865364, 44.735428], [-63.865349, 44.735466], [-63.865351, 44.735513], [-63.865297, 44.735571], [-63.865276, 44.735626], [-63.865228, 44.735693], [-63.865196, 44.735766], [-63.865031, 44.735968], [-63.869931, 44.734909], [-63.87062, 44.736028], [-63.872383, 44.739916], [-63.873372, 44.742037], [-63.872051, 44.743227], [-63.870133, 44.747921], [-63.870022, 44.749705], [-63.868422, 44.754498], [-63.868454, 44.755732], [-63.868468, 44.756559], [-63.868406, 44.756981], [-63.868121, 44.757036], [-63.867915, 44.757181], [-63.867821, 44.757472], [-63.867729, 44.75855], [-63.867682, 44.759783], [-63.867706, 44.7607], [-63.867792, 44.76212], [-63.867677, 44.762282], [-63.866259, 44.762874], [-63.86584, 44.763707], [-63.865744, 44.764104], [-63.865989, 44.764641], [-63.866031, 44.764966], [-63.86646, 44.765284], [-63.867153, 44.765442], [-63.867641, 44.765599], [-63.867787, 44.765786], [-63.867978, 44.765999], [-63.867964, 44.766193], [-63.867837, 44.766411], [-63.867585, 44.766524], [-63.867106, 44.766586], [-63.866354, 44.76663], [-63.866068, 44.76675], [-63.865828, 44.766846], [-63.865532, 44.766804], [-63.865339, 44.766754], [-63.865198, 44.76677], [-63.864807, 44.766516], [-63.86441, 44.76636], [-63.863774, 44.766251], [-63.862349, 44.766365], [-63.8619, 44.7668], [-63.858414, 44.771015], [-63.85682, 44.775175], [-63.857724, 44.775797], [-63.858141, 44.776132], [-63.858274, 44.776465], [-63.859043, 44.776948], [-63.860445, 44.777864], [-63.863115, 44.78157], [-63.848593, 44.801572], [-63.848359, 44.801443], [-63.848002, 44.801648], [-63.847673, 44.801727], [-63.847622, 44.801781], [-63.847402, 44.802239], [-63.847463, 44.80241], [-63.847937, 44.802989], [-63.848009, 44.803331], [-63.847691, 44.804562], [-63.847421, 44.804966], [-63.846923, 44.805431], [-63.846362, 44.805842], [-63.845914, 44.806343], [-63.845631, 44.806818], [-63.845448, 44.807321], [-63.845101, 44.807841], [-63.844954, 44.808515], [-63.844657, 44.809108], [-63.844001, 44.810085], [-63.843428, 44.810387], [-63.843302, 44.810387], [-63.843265, 44.810314], [-63.84327, 44.809847], [-63.843284, 44.809775], [-63.843474, 44.809695], [-63.843467, 44.809173], [-63.84357, 44.809065], [-63.843609, 44.808921], [-63.843182, 44.808721], [-63.842882, 44.808386], [-63.842706, 44.808268], [-63.842455, 44.808195], [-63.842063, 44.808175], [-63.841824, 44.808083], [-63.841686, 44.807975], [-63.840725, 44.807969], [-63.84051, 44.808013], [-63.840207, 44.807975], [-63.839464, 44.80771], [-63.83815, 44.807675], [-63.837887, 44.807458], [-63.837747, 44.807502], [-63.837659, 44.807474], [-63.837561, 44.807213], [-63.837656, 44.806628], [-63.837693, 44.805585], [-63.837578, 44.804603], [-63.837373, 44.803747], [-63.83725, 44.803476], [-63.83674, 44.802735], [-63.836613, 44.802734], [-63.836295, 44.802985], [-63.836102, 44.803263], [-63.835545, 44.804384], [-63.835122, 44.804949], [-63.834305, 44.805583], [-63.833445, 44.806766], [-63.833356, 44.80681], [-63.833014, 44.806826], [-63.832696, 44.807031], [-63.83258, 44.807211], [-63.832538, 44.807579], [-63.832605, 44.808354], [-63.832889, 44.808922], [-63.833427, 44.809403], [-63.833285, 44.809636], [-63.832915, 44.809913], [-63.832648, 44.810046], [-63.832355, 44.810296], [-63.831936, 44.810375], [-63.831935, 44.810519], [-63.83207, 44.810888], [-63.831585, 44.811273], [-63.83142, 44.81129], [-63.831357, 44.811253], [-63.831208, 44.811081], [-63.830961, 44.810549], [-63.830601, 44.809971], [-63.830025, 44.809491], [-63.829824, 44.809427], [-63.829583, 44.809425], [-63.829135, 44.809944], [-63.828992, 44.810313], [-63.828896, 44.810888], [-63.828892, 44.811248], [-63.829064, 44.811717], [-63.829188, 44.811915], [-63.829826, 44.812477], [-63.830115, 44.812614], [-63.830569, 44.812707], [-63.830416, 44.812841], [-63.83021, 44.813172], [-63.829969, 44.81327], [-63.829892, 44.813351], [-63.829989, 44.813684], [-63.830213, 44.813964], [-63.830134, 44.814234], [-63.829689, 44.814483], [-63.828796, 44.815135], [-63.828302, 44.81524], [-63.827734, 44.815183], [-63.827821, 44.815354], [-63.827731, 44.815444], [-63.827402, 44.815442], [-63.827038, 44.815224], [-63.826798, 44.815159], [-63.82646, 44.814923], [-63.826107, 44.814822], [-63.82593, 44.81483], [-63.825827, 44.814982], [-63.825665, 44.814802], [-63.825526, 44.814783], [-63.825475, 44.814836], [-63.825485, 44.81499], [-63.825384, 44.815034], [-63.825259, 44.81488], [-63.825057, 44.81487], [-63.825118, 44.815068], [-63.824952, 44.815175], [-63.824923, 44.815472], [-63.824973, 44.81558], [-63.825211, 44.815717], [-63.825527, 44.815791], [-63.82578, 44.815774], [-63.825883, 44.815568], [-63.826033, 44.815713], [-63.826172, 44.815722], [-63.826236, 44.815696], [-63.82624, 44.815318], [-63.82638, 44.815238], [-63.826645, 44.815302], [-63.826757, 44.815429], [-63.826768, 44.815564], [-63.826716, 44.81569], [-63.82674, 44.815834], [-63.826586, 44.816022], [-63.826141, 44.816271], [-63.825872, 44.816549], [-63.825567, 44.816664], [-63.825273, 44.816914], [-63.825285, 44.817013], [-63.825561, 44.817204], [-63.825547, 44.817303], [-63.825358, 44.817293], [-63.824589, 44.817027], [-63.824271, 44.817232], [-63.824194, 44.81734], [-63.824177, 44.817709], [-63.824577, 44.818107], [-63.825168, 44.818389], [-63.825441, 44.818823], [-63.825654, 44.818932], [-63.826436, 44.819126], [-63.826536, 44.819225], [-63.826446, 44.819387], [-63.825924, 44.819708], [-63.825679, 44.820093], [-63.825271, 44.820343], [-63.824837, 44.820718], [-63.824695, 44.820942], [-63.824555, 44.821005], [-63.824189, 44.82102], [-63.824048, 44.821119], [-63.824073, 44.821164], [-63.823731, 44.821252], [-63.823679, 44.821332], [-63.823678, 44.821395], [-63.823916, 44.821631], [-63.823914, 44.821802], [-63.823964, 44.821847], [-63.824142, 44.821776], [-63.824306, 44.821777], [-63.82457, 44.82195], [-63.824804, 44.822455], [-63.824815, 44.822626], [-63.825014, 44.82287], [-63.824872, 44.823112], [-63.824946, 44.823293], [-63.824832, 44.823274], [-63.824506, 44.823056], [-63.824076, 44.823054], [-63.823927, 44.822828], [-63.823943, 44.822585], [-63.824249, 44.822362], [-63.823784, 44.82208], [-63.823532, 44.822015], [-63.823195, 44.821618], [-63.822816, 44.821651], [-63.822751, 44.821795], [-63.822611, 44.821848], [-63.822596, 44.822046], [-63.821724, 44.821996], [-63.821126, 44.822352], [-63.820784, 44.822368], [-63.820591, 44.822619], [-63.820691, 44.822772], [-63.820967, 44.822945], [-63.82099, 44.823098], [-63.820813, 44.823079], [-63.820487, 44.822915], [-63.820262, 44.822698], [-63.819932, 44.822777], [-63.819755, 44.822758], [-63.819513, 44.822927], [-63.819285, 44.822953], [-63.819308, 44.823097], [-63.81966, 44.823279], [-63.819633, 44.823441], [-63.818916, 44.823131], [-63.818637, 44.823192], [-63.818484, 44.823308], [-63.818053, 44.82336], [-63.817901, 44.823467], [-63.817698, 44.823529], [-63.816994, 44.823119], [-63.816779, 44.823091], [-63.816639, 44.823207], [-63.816674, 44.823414], [-63.816775, 44.823514], [-63.817102, 44.823642], [-63.81729, 44.823778], [-63.817187, 44.823904], [-63.816748, 44.823649], [-63.816596, 44.823612], [-63.81662, 44.823783], [-63.817334, 44.824354], [-63.817407, 44.82458], [-63.817494, 44.82467], [-63.818074, 44.824863], [-63.818157, 44.825304], [-63.817979, 44.825384], [-63.817296, 44.825371], [-63.817158, 44.825307], [-63.816842, 44.825278], [-63.816793, 44.825143], [-63.81658, 44.824971], [-63.816404, 44.824907], [-63.816202, 44.824906], [-63.816001, 44.824733], [-63.815748, 44.824732], [-63.815444, 44.824811], [-63.815442, 44.824955], [-63.815945, 44.825174], [-63.816372, 44.825456], [-63.81627, 44.825563], [-63.816356, 44.825779], [-63.816328, 44.825968], [-63.815909, 44.826137], [-63.815542, 44.826116], [-63.815263, 44.826223], [-63.815387, 44.826395], [-63.815319, 44.826853], [-63.815026, 44.826986], [-63.814834, 44.827219], [-63.81473, 44.827426], [-63.8147, 44.827857], [-63.81456, 44.827893], [-63.814219, 44.827846], [-63.814102, 44.828106], [-63.813847, 44.828284], [-63.813506, 44.828255], [-63.813382, 44.828029], [-63.812965, 44.828063], [-63.812773, 44.828206], [-63.812746, 44.828395], [-63.812262, 44.828698], [-63.812121, 44.828841], [-63.811613, 44.828991], [-63.811043, 44.82905], [-63.810866, 44.829049], [-63.810716, 44.828904], [-63.810542, 44.828696], [-63.81062, 44.82849], [-63.810192, 44.82828], [-63.810224, 44.828049], [-63.809673, 44.828441], [-63.80942, 44.828812], [-63.807423, 44.831739], [-63.806331, 44.833338], [-63.806083, 44.833703], [-63.805856, 44.834035], [-63.80569, 44.834277], [-63.804242, 44.8364], [-63.802035, 44.839632], [-63.7891, 44.8277], [-63.79, 44.8274], [-63.7906, 44.8273], [-63.7908, 44.8272], [-63.7909, 44.8269], [-63.7903, 44.8259], [-63.7899, 44.8255], [-63.7887, 44.8253], [-63.7884, 44.8252], [-63.7871, 44.8252], [-63.7868, 44.8251], [-63.7867, 44.825], [-63.7869, 44.8242], [-63.7867, 44.8239], [-63.7864, 44.8239], [-63.7856, 44.8237], [-63.7855, 44.8233], [-63.7852, 44.8229], [-63.7849, 44.8222], [-63.785, 44.8218], [-63.7846, 44.8211], [-63.7845, 44.821], [-63.7841, 44.8208], [-63.7836, 44.8207], [-63.7826, 44.8197], [-63.7826, 44.8188], [-63.7824, 44.8185], [-63.782, 44.8185], [-63.7818, 44.8184], [-63.7813, 44.8178], [-63.7803, 44.8171], [-63.7801, 44.8169], [-63.7805, 44.816], [-63.7807, 44.8154], [-63.7812, 44.8149], [-63.7813, 44.8147], [-63.7808, 44.8141], [-63.7808, 44.8139], [-63.7811, 44.8136], [-63.7815, 44.8129], [-63.7819, 44.8119], [-63.7826, 44.8115], [-63.783, 44.8115], [-63.7832, 44.8114], [-63.7833, 44.811], [-63.7833, 44.8105], [-63.7834, 44.8103], [-63.7833, 44.8099], [-63.7828, 44.8099], [-63.7827, 44.8098], [-63.7829, 44.8094], [-63.7828, 44.8089], [-63.7822, 44.8079], [-63.7824, 44.8075], [-63.7824, 44.8066], [-63.7823, 44.8062], [-63.7818, 44.806], [-63.7817, 44.8057], [-63.7817, 44.8055], [-63.7816, 44.8053], [-63.7813, 44.8051], [-63.781, 44.805], [-63.7808, 44.8048], [-63.7808, 44.8047], [-63.7807, 44.8046], [-63.7802, 44.8045], [-63.78, 44.8041], [-63.7802, 44.8038], [-63.7803, 44.8033], [-63.7801, 44.8031], [-63.7798, 44.803], [-63.7795, 44.8028], [-63.7794, 44.8025], [-63.7795, 44.8021], [-63.7793, 44.8016], [-63.7787, 44.8008], [-63.778643, 44.800479], [-63.77899, 44.800332], [-63.780942, 44.797862], [-63.784579, 44.793279], [-63.792238, 44.783284], [-63.79042, 44.782561], [-63.791817, 44.780827], [-63.795317, 44.776393], [-63.804432, 44.764869], [-63.803333, 44.764101], [-63.813216, 44.757183], [-63.808533, 44.754335], [-63.810031, 44.754706], [-63.808434, 44.753734], [-63.803462, 44.750692], [-63.808129, 44.747269], [-63.809512, 44.746231], [-63.809722, 44.746089], [-63.810368, 44.745525], [-63.81178, 44.744456], [-63.813873, 44.742827], [-63.81454, 44.743141], [-63.815511, 44.743576], [-63.817261, 44.744563], [-63.820888, 44.742022], [-63.821683, 44.742563], [-63.822024, 44.742355], [-63.822393, 44.742061], [-63.822934, 44.741613], [-63.823427, 44.741147], [-63.8237, 44.740697], [-63.823876, 44.740229], [-63.824175, 44.739615], [-63.83669, 44.730622], [-63.83674, 44.730573], [-63.836858, 44.730526], [-63.836954, 44.730458], [-63.836996, 44.730433], [-63.837031, 44.730419], [-63.839042, 44.731806], [-63.847684, 44.725533], [-63.847746, 44.72548], [-63.848259, 44.725116], [-63.860329, 44.732458], [-63.860347, 44.732439], [-63.860356, 44.732421], [-63.860341, 44.732383], [-63.86037, 44.7323], [-63.860374, 44.732276], [-63.860369, 44.732238], [-63.86034, 44.732182], [-63.860297, 44.732123], [-63.860285, 44.732082], [-63.860289, 44.732044], [-63.860319, 44.731943], [-63.860327, 44.731932], [-63.860359, 44.731931], [-63.860407, 44.73194], [-63.860491, 44.731969], [-63.860569, 44.732001], [-63.860584, 44.732011], [-63.860604, 44.732031], [-63.860641, 44.732091], [-63.860665, 44.732115], [-63.860751, 44.732191], [-63.860782, 44.73221], [-63.86082, 44.73222], [-63.860968, 44.732226], [-63.861023, 44.732238], [-63.861082, 44.732268], [-63.861143, 44.732319], [-63.861247, 44.732434], [-63.861308, 44.732516], [-63.861353, 44.732588], [-63.862991, 44.731352]]]}}, {"type": "Feature", "properties": {"name": "Hammonds Plains"}, "geometry": {"type": "Polygon", "coordinates": [[[-63.710012, 44.696173], [-63.71281, 44.696058], [-63.710387, 44.693261], [-63.709918, 44.692721], [-63.713967, 44.690936], [-63.720966, 44.693344], [-63.723598, 44.689521], [-63.724727, 44.692518], [-63.729501, 44.693771], [-63.73067, 44.694086], [-63.731845, 44.694607], [-63.732973, 44.695346], [-63.733506, 44.695695], [-63.73361, 44.695983], [-63.736146, 44.697626], [-63.738208, 44.698961], [-63.739038, 44.699499], [-63.739335, 44.699235], [-63.739569, 44.69873], [-63.735467, 44.697066], [-63.737434, 44.694661], [-63.734447, 44.693466], [-63.736435, 44.691011], [-63.747487, 44.695388], [-63.743491, 44.700342], [-63.739904, 44.69887], [-63.739665, 44.699368], [-63.739321, 44.699653], [-63.744835, 44.703217], [-63.747573, 44.702637], [-63.747625, 44.702626], [-63.750087, 44.699509], [-63.752958, 44.695916], [-63.752991, 44.695875], [-63.753177, 44.695676], [-63.755204, 44.693151], [-63.75551, 44.692786], [-63.756586, 44.691454], [-63.758492, 44.692633], [-63.758801, 44.692815], [-63.759477, 44.69324], [-63.763818, 44.695896], [-63.767007, 44.693411], [-63.769688, 44.691322], [-63.770922, 44.692126], [-63.772029, 44.692892], [-63.772257, 44.693046], [-63.773422, 44.693813], [-63.774108, 44.693282], [-63.777195, 44.695278], [-63.777967, 44.695777], [-63.778797, 44.696314], [-63.777555, 44.697285], [-63.777657, 44.697562], [-63.778775, 44.697957], [-63.780083, 44.69816], [-63.780518, 44.698096], [-63.780921, 44.697855], [-63.781391, 44.697682], [-63.781641, 44.697417], [-63.782509, 44.69738], [-63.783111, 44.697523], [-63.783381, 44.697707], [-63.783804, 44.697916], [-63.783991, 44.69796], [-63.786041, 44.696337], [-63.78543, 44.695753], [-63.785162, 44.695302], [-63.785137, 44.695079], [-63.784825, 44.694652], [-63.783433, 44.693654], [-63.783186, 44.693358], [-63.782788, 44.692616], [-63.78279, 44.692465], [-63.783134, 44.692189], [-63.782999, 44.691378], [-63.783321, 44.691014], [-63.783106, 44.689872], [-63.783225, 44.689332], [-63.784543, 44.689062], [-63.78704, 44.687147], [-63.787638, 44.685967], [-63.789805, 44.684163], [-63.792545, 44.685802], [-63.798622, 44.689437], [-63.814331, 44.698856], [-63.818816, 44.701472], [-63.823659, 44.704337], [-63.828104, 44.707006], [-63.835851, 44.711607], [-63.836864, 44.712212], [-63.837294, 44.712475], [-63.838479, 44.713176], [-63.83685, 44.714962], [-63.836647, 44.715154], [-63.836374, 44.715488], [-63.834703, 44.717047], [-63.834904, 44.71717], [-63.835682, 44.717615], [-63.836725, 44.718261], [-63.838523, 44.719223], [-63.839767, 44.719929], [-63.841789, 44.721123], [-63.842505, 44.721556], [-63.84311, 44.721903], [-63.843877, 44.722357], [-63.84385, 44.72238], [-63.844025, 44.722483], [-63.844352, 44.722853], [-63.844321, 44.722864], [-63.844972, 44.7236], [-63.845056, 44.723592], [-63.84557, 44.724172], [-63.846201, 44.723731], [-63.846802, 44.724093], [-63.847192, 44.724135], [-63.847215, 44.724391], [-63.847553, 44.72469], [-63.848259, 44.725116], [-63.847746, 44.72548], [-63.847684, 44.725533], [-63.839042, 44.731806], [-63.837031, 44.730419], [-63.836996, 44.730433], [-63.836954, 44.730458], [-63.836858, 44.730526], [-63.83674, 44.730573], [-63.83669, 44.730622], [-63.824175, 44.739615], [-63.823876, 44.740229], [-63.8237, 44.740697], [-63.823427, 44.741147], [-63.822934, 44.741613], [-63.822393, 44.742061], [-63.822024, 44.742355], [-63.821683, 44.742563], [-63.820888, 44.742022], [-63.817261, 44.744563], [-63.815511, 44.743576], [-63.81454, 44.743141], [-63.813873, 44.742827], [-63.81178, 44.744456], [-63.810368, 44.745525], [-63.809722, 44.746089], [-63.809512, 44.746231], [-63.808129, 44.747269], [-63.803462, 44.750692], [-63.808434, 44.753734], [-63.810031, 44.754706], [-63.808533, 44.754335], [-63.813216, 44.757183], [-63.803333, 44.764101], [-63.804432, 44.764869], [-63.795317, 44.776393], [-63.791817, 44.780827], [-63.79042, 44.782561], [-63.792238, 44.783284], [-63.784579, 44.793279], [-63.780942, 44.797862], [-63.77899, 44.800332], [-63.778643, 44.800479], [-63.7785, 44.7999], [-63.7779, 44.7992], [-63.7774, 44.7985], [-63.7774, 44.7983], [-63.7776, 44.798], [-63.7786, 44.7977], [-63.7789, 44.7975], [-63.7792, 44.797], [-63.7794, 44.797], [-63.7795, 44.7968], [-63.7791, 44.7965], [-63.7781, 44.7959], [-63.777411, 44.79509], [-63.7764, 44.7939], [-63.776003, 44.793503], [-63.7752, 44.7927], [-63.773, 44.7908], [-63.7728, 44.79], [-63.775, 44.7872], [-63.7749, 44.7866], [-63.7749, 44.7862], [-63.7753, 44.7853], [-63.7754, 44.7849], [-63.7735, 44.7845], [-63.7731, 44.7845], [-63.7721, 44.7846], [-63.7708, 44.7855], [-63.7703, 44.7856], [-63.7686, 44.785], [-63.7682, 44.7849], [-63.7676, 44.7844], [-63.7669, 44.7841], [-63.7655, 44.783], [-63.7631, 44.7817], [-63.7602, 44.7803], [-63.7577, 44.7791], [-63.7506, 44.7751], [-63.7476, 44.774], [-63.745801, 44.773698], [-63.746785, 44.771577], [-63.748268, 44.76825], [-63.748434, 44.767993], [-63.753027, 44.76274], [-63.754295, 44.761252], [-63.760922, 44.753636], [-63.764419, 44.749644], [-63.764942, 44.749111], [-63.761737, 44.747071], [-63.76012, 44.746078], [-63.764113, 44.742551], [-63.75235, 44.739639], [-63.750353, 44.739164], [-63.750209, 44.739092], [-63.74936, 44.738533], [-63.749411, 44.738503], [-63.748143, 44.737484], [-63.746368, 44.7361], [-63.744581, 44.734671], [-63.74145, 44.738318], [-63.737614, 44.742817], [-63.735846, 44.741639], [-63.734251, 44.740358], [-63.732769, 44.741948], [-63.73237, 44.742555], [-63.73225, 44.742713], [-63.727402, 44.748467], [-63.724709, 44.751644], [-63.720884, 44.749482], [-63.718628, 44.748094], [-63.718394, 44.747928], [-63.717813, 44.747804], [-63.713902, 44.745709], [-63.712711, 44.745137], [-63.723069, 44.732801], [-63.725291, 44.730405], [-63.730094, 44.724974], [-63.730358, 44.724141], [-63.731344, 44.724003], [-63.731409, 44.72387], [-63.731404, 44.723845], [-63.731541, 44.723644], [-63.732104, 44.72282], [-63.732153, 44.722689], [-63.733052, 44.721444], [-63.732493, 44.721064], [-63.725071, 44.716156], [-63.7242, 44.71553], [-63.724845, 44.714927], [-63.7235, 44.714466], [-63.723069, 44.714954], [-63.721781, 44.714069], [-63.720138, 44.713016], [-63.720647, 44.712357], [-63.720767, 44.71227], [-63.7208, 44.712253], [-63.721186, 44.712039], [-63.721628, 44.711794], [-63.721393, 44.711545], [-63.720794, 44.711009], [-63.720195, 44.710472], [-63.719597, 44.709935], [-63.720801, 44.709252], [-63.721149, 44.709565], [-63.721153, 44.709558], [-63.721158, 44.70955], [-63.721164, 44.709542], [-63.72117, 44.709534], [-63.721177, 44.709527], [-63.721184, 44.70952], [-63.721192, 44.709513], [-63.7212, 44.709507], [-63.721209, 44.7095], [-63.721218, 44.709494], [-63.721227, 44.709489], [-63.721237, 44.709483], [-63.721248, 44.709478], [-63.721258, 44.709474], [-63.721269, 44.70947], [-63.72128, 44.709466], [-63.721292, 44.709463], [-63.721303, 44.709459], [-63.721315, 44.709457], [-63.721328, 44.709455], [-63.721339, 44.709453], [-63.721348, 44.709452], [-63.720959, 44.709103], [-63.722195, 44.708402], [-63.722793, 44.708939], [-63.722418, 44.709151], [-63.722837, 44.709527], [-63.723262, 44.709908], [-63.723676, 44.710278], [-63.724095, 44.710654], [-63.724432, 44.711229], [-63.724921, 44.71105], [-63.725505, 44.71081], [-63.726088, 44.710571], [-63.727166, 44.710129], [-63.727232, 44.710102], [-63.727816, 44.709862], [-63.727962, 44.709745], [-63.727617, 44.709356], [-63.728801, 44.709166], [-63.729, 44.709387], [-63.729213, 44.709289], [-63.729287, 44.709371], [-63.729292, 44.709378], [-63.729309, 44.709397], [-63.729318, 44.709407], [-63.729326, 44.709417], [-63.729342, 44.709436], [-63.72935, 44.709446], [-63.729358, 44.709456], [-63.729373, 44.709476], [-63.72938, 44.709486], [-63.729388, 44.709497], [-63.729395, 44.709507], [-63.729402, 44.709517], [-63.729409, 44.709527], [-63.729416, 44.709538], [-63.729423, 44.709548], [-63.729429, 44.709558], [-63.72943, 44.70956], [-63.729635, 44.709492], [-63.730666, 44.709246], [-63.73071, 44.709233], [-63.729375, 44.704826], [-63.72467, 44.702863], [-63.722105, 44.701792], [-63.720441, 44.701103], [-63.719612, 44.70076], [-63.710012, 44.696173]]]}}, {"type": "Feature", "properties": {"name": "Upper Tantallon"}, "geometry": {"type": "Polygon", "coordinates": [[[-63.854147, 44.680863], [-63.85391, 44.680815], [-63.853307, 44.680678], [-63.849654, 44.686329], [-63.849605, 44.686415], [-63.849532, 44.686511], [-63.846619, 44.690843], [-63.843353, 44.692462], [-63.84646, 44.695332], [-63.846257, 44.695441], [-63.846301, 44.695458], [-63.846433, 44.695483], [-63.846549, 44.695492], [-63.846695, 44.695495], [-63.846861, 44.695479], [-63.847044, 44.695446], [-63.847309, 44.695408], [-63.847456, 44.6954], [-63.847616, 44.695397], [-63.847726, 44.695411], [-63.847841, 44.695447], [-63.847902, 44.695476], [-63.847972, 44.69553], [-63.848004, 44.695579], [-63.848008, 44.695647], [-63.847944, 44.69581], [-63.847927, 44.695875], [-63.847919, 44.695931], [-63.847927, 44.695989], [-63.847976, 44.696039], [-63.84806, 44.696064], [-63.848152, 44.696059], [-63.848589, 44.69594], [-63.84865, 44.695938], [-63.848816, 44.695944], [-63.848881, 44.695972], [-63.848956, 44.696056], [-63.848971, 44.6961], [-63.848964, 44.696146], [-63.848925, 44.696224], [-63.848871, 44.696355], [-63.848834, 44.696466], [-63.848845, 44.696499], [-63.848915, 44.696545], [-63.848999, 44.696557], [-63.849127, 44.696546], [-63.84924, 44.696527], [-63.849427, 44.696482], [-63.84968, 44.696394], [-63.849808, 44.696368], [-63.849964, 44.696307], [-63.85001, 44.696278], [-63.850075, 44.696218], [-63.850138, 44.696191], [-63.850222, 44.696182], [-63.850319, 44.696201], [-63.850391, 44.696232], [-63.850542, 44.696269], [-63.850658, 44.696284], [-63.850715, 44.696285], [-63.850994, 44.696272], [-63.85142, 44.696228], [-63.851472, 44.69621], [-63.851623, 44.69612], [-63.851701, 44.696086], [-63.852027, 44.696], [-63.852109, 44.695969], [-63.852161, 44.69596], [-63.852257, 44.695951], [-63.852474, 44.695909], [-63.852543, 44.695883], [-63.852648, 44.69582], [-63.852691, 44.695761], [-63.85273, 44.695732], [-63.852764, 44.695725], [-63.85288, 44.695732], [-63.852965, 44.695708], [-63.853065, 44.695658], [-63.85349, 44.695462], [-63.853645, 44.695381], [-63.853834, 44.695274], [-63.853997, 44.695172], [-63.854244, 44.695], [-63.85443, 44.694849], [-63.854646, 44.69465], [-63.854999, 44.694242], [-63.855173, 44.693996], [-63.855482, 44.693513], [-63.855708, 44.693173], [-63.855951, 44.692865], [-63.856028, 44.692784], [-63.85619, 44.692628], [-63.85629, 44.692539], [-63.856431, 44.692441], [-63.856586, 44.692342], [-63.856735, 44.692255], [-63.857034, 44.692096], [-63.857277, 44.691985], [-63.857403, 44.691936], [-63.857621, 44.691862], [-63.857755, 44.691824], [-63.857983, 44.691768], [-63.858091, 44.691745], [-63.85831, 44.691712], [-63.858533, 44.691694], [-63.858947, 44.691692], [-63.859155, 44.691697], [-63.859346, 44.691706], [-63.860602, 44.691798], [-63.860883, 44.691812], [-63.861445, 44.691815], [-63.861541, 44.691813], [-63.861715, 44.691804], [-63.861837, 44.691767], [-63.861807, 44.691904], [-63.861743, 44.69214], [-63.860826, 44.693103], [-63.859709, 44.695784], [-63.859381, 44.696955], [-63.858474, 44.697528], [-63.857934, 44.697461], [-63.857372, 44.697297], [-63.857262, 44.69712], [-63.857152, 44.696894], [-63.857063, 44.696781], [-63.856977, 44.696859], [-63.854102, 44.700813], [-63.852759, 44.700779], [-63.852225, 44.700751], [-63.852111, 44.701382], [-63.852472, 44.701405], [-63.853272, 44.701464], [-63.85421, 44.701541], [-63.854869, 44.701609], [-63.856156, 44.701771], [-63.856763, 44.702082], [-63.856845, 44.702119], [-63.85701, 44.702258], [-63.857057, 44.70234], [-63.857071, 44.702385], [-63.857078, 44.70243], [-63.857076, 44.702488], [-63.857066, 44.702533], [-63.857048, 44.702577], [-63.857016, 44.702629], [-63.856983, 44.702668], [-63.857037, 44.702696], [-63.856533, 44.703142], [-63.855472, 44.704041], [-63.855118, 44.704188], [-63.855416, 44.704303], [-63.855595, 44.704406], [-63.855404, 44.704492], [-63.85501, 44.70479], [-63.8551, 44.704362], [-63.854788, 44.704538], [-63.854266, 44.704805], [-63.853844, 44.70501], [-63.853641, 44.705088], [-63.853077, 44.705353], [-63.852086, 44.705776], [-63.851028, 44.706215], [-63.850335, 44.706512], [-63.849759, 44.706656], [-63.849882, 44.70682], [-63.849984, 44.706975], [-63.850169, 44.707179], [-63.849907, 44.707504], [-63.849819, 44.708672], [-63.849441, 44.70963], [-63.848579, 44.710624], [-63.846966, 44.712282], [-63.8472, 44.715403], [-63.847067, 44.715794], [-63.846447, 44.717242], [-63.846793, 44.719073], [-63.846982, 44.719466], [-63.84708, 44.720364], [-63.847009, 44.722092], [-63.847192, 44.724135], [-63.847215, 44.724391], [-63.847553, 44.72469], [-63.848259, 44.725116], [-63.860329, 44.732458], [-63.860347, 44.732439], [-63.860356, 44.732421], [-63.860341, 44.732383], [-63.86037, 44.7323], [-63.860374, 44.732276], [-63.860369, 44.732238], [-63.86034, 44.732182], [-63.860297, 44.732123], [-63.860285, 44.732082], [-63.860289, 44.732044], [-63.860319, 44.731943], [-63.860327, 44.731932], [-63.860359, 44.731931], [-63.860407, 44.73194], [-63.860491, 44.731969], [-63.860569, 44.732001], [-63.860584, 44.732011], [-63.860604, 44.732031], [-63.860641, 44.732091], [-63.860665, 44.732115], [-63.860751, 44.732191], [-63.860782, 44.73221], [-63.86082, 44.73222], [-63.860968, 44.732226], [-63.861023, 44.732238], [-63.861082, 44.732268], [-63.861143, 44.732319], [-63.861247, 44.732434], [-63.861308, 44.732516], [-63.861353, 44.732588], [-63.862991, 44.731352], [-63.864018, 44.731861], [-63.864078, 44.731836], [-63.86422, 44.731755], [-63.86426, 44.73174], [-63.864287, 44.731734], [-63.864275, 44.731753], [-63.864229, 44.7318], [-63.864188, 44.731892], [-63.864188, 44.731907], [-63.864187, 44.731929], [-63.864202, 44.731957], [-63.864282, 44.732026], [-63.864312, 44.732048], [-63.864338, 44.732067], [-63.864418, 44.732104], [-63.864482, 44.732144], [-63.86456, 44.732178], [-63.864639, 44.732245], [-63.864729, 44.732304], [-63.864772, 44.732353], [-63.864792, 44.732371], [-63.864867, 44.732422], [-63.864941, 44.732481], [-63.865004, 44.732518], [-63.865098, 44.73259], [-63.86515, 44.732636], [-63.865194, 44.732689], [-63.865223, 44.732734], [-63.865243, 44.73279], [-63.865243, 44.73282], [-63.865229, 44.732861], [-63.865182, 44.732956], [-63.865152, 44.732994], [-63.865075, 44.733059], [-63.865027, 44.733108], [-63.864947, 44.733217], [-63.864926, 44.733275], [-63.86492, 44.733333], [-63.864872, 44.733405], [-63.864871, 44.733435], [-63.864895, 44.733513], [-63.864905, 44.733588], [-63.864906, 44.733653], [-63.864921, 44.733692], [-63.864961, 44.733756], [-63.865015, 44.733816], [-63.865059, 44.733835], [-63.865162, 44.733858], [-63.865218, 44.733881], [-63.865288, 44.733927], [-63.865311, 44.733946], [-63.865365, 44.733999], [-63.865422, 44.734068], [-63.865458, 44.734095], [-63.865482, 44.734102], [-63.865569, 44.734112], [-63.8656, 44.734122], [-63.865626, 44.734139], [-63.865634, 44.734161], [-63.865621, 44.734221], [-63.865625, 44.734238], [-63.865638, 44.734261], [-63.865677, 44.734298], [-63.865729, 44.734366], [-63.865779, 44.734451], [-63.865826, 44.734516], [-63.865847, 44.734591], [-63.865857, 44.734609], [-63.865924, 44.734664], [-63.865931, 44.734672], [-63.865938, 44.734701], [-63.865913, 44.734771], [-63.865915, 44.734828], [-63.865896, 44.734865], [-63.865872, 44.734901], [-63.865862, 44.734915], [-63.865842, 44.734938], [-63.865776, 44.734985], [-63.865736, 44.734998], [-63.865656, 44.735007], [-63.86563, 44.735013], [-63.8656, 44.735035], [-63.865584, 44.735056], [-63.865563, 44.735111], [-63.865558, 44.735217], [-63.865506, 44.735264], [-63.865392, 44.735387], [-63.865364, 44.735428], [-63.865349, 44.735466], [-63.865351, 44.735513], [-63.865297, 44.735571], [-63.865276, 44.735626], [-63.865228, 44.735693], [-63.865196, 44.735766], [-63.865031, 44.735968], [-63.869931, 44.734909], [-63.87062, 44.736028], [-63.872383, 44.739916], [-63.873372, 44.742037], [-63.87674, 44.739002], [-63.881018, 44.735872], [-63.883223, 44.736355], [-63.886211, 44.735949], [-63.891047, 44.735326], [-63.89212, 44.735072], [-63.891961, 44.734854], [-63.891924, 44.734764], [-63.891925, 44.734683], [-63.891863, 44.734574], [-63.891725, 44.734466], [-63.891513, 44.734249], [-63.891401, 44.734095], [-63.891377, 44.734005], [-63.891378, 44.733897], [-63.891391, 44.733861], [-63.891416, 44.733834], [-63.891467, 44.733816], [-63.891606, 44.733835], [-63.891631, 44.733826], [-63.891661, 44.733826], [-63.895631, 44.730443], [-63.894822, 44.728788], [-63.893829, 44.727217], [-63.893406, 44.726559], [-63.892181, 44.724627], [-63.890414, 44.721781], [-63.895565, 44.715747], [-63.895748, 44.713649], [-63.893058, 44.710938], [-63.892015, 44.709327], [-63.891981, 44.709333], [-63.891885, 44.709331], [-63.891833, 44.709326], [-63.891793, 44.709316], [-63.891763, 44.709296], [-63.891742, 44.709269], [-63.891727, 44.709235], [-63.891746, 44.709121], [-63.891703, 44.709014], [-63.89169, 44.708961], [-63.891667, 44.708923], [-63.891669, 44.708911], [-63.891697, 44.708878], [-63.891703, 44.708862], [-63.891685, 44.708796], [-63.891683, 44.708759], [-63.891693, 44.708737], [-63.891705, 44.708726], [-63.891831, 44.708639], [-63.891195, 44.707679], [-63.891064, 44.707481], [-63.891454, 44.70623], [-63.891117, 44.705417], [-63.890077, 44.703039], [-63.889629, 44.702357], [-63.889244, 44.701691], [-63.889373, 44.701242], [-63.891089, 44.698489], [-63.891096, 44.698466], [-63.891174, 44.69821], [-63.891436, 44.6977], [-63.891444, 44.697648], [-63.891393, 44.697585], [-63.891324, 44.697479], [-63.891281, 44.69738], [-63.891274, 44.697293], [-63.891345, 44.697131], [-63.891389, 44.697069], [-63.891395, 44.697003], [-63.891353, 44.696885], [-63.891205, 44.696655], [-63.891206, 44.696607], [-63.891259, 44.696465], [-63.891295, 44.696302], [-63.891262, 44.696205], [-63.891101, 44.696047], [-63.891019, 44.696001], [-63.890955, 44.695983], [-63.890839, 44.695972], [-63.890744, 44.695947], [-63.890665, 44.695914], [-63.890583, 44.695828], [-63.890481, 44.695668], [-63.890423, 44.695567], [-63.890334, 44.695362], [-63.890334, 44.695305], [-63.890316, 44.69525], [-63.890277, 44.695193], [-63.890192, 44.695112], [-63.89012, 44.695009], [-63.890081, 44.694939], [-63.889969, 44.694794], [-63.889864, 44.694588], [-63.889865, 44.694536], [-63.889847, 44.694487], [-63.889829, 44.694372], [-63.889819, 44.694307], [-63.889843, 44.69428], [-63.889941, 44.694248], [-63.889998, 44.694223], [-63.890035, 44.694189], [-63.890111, 44.694061], [-63.890129, 44.693951], [-63.890189, 44.693851], [-63.890263, 44.693775], [-63.890335, 44.693729], [-63.890472, 44.693553], [-63.890709, 44.693167], [-63.890807, 44.692947], [-63.890856, 44.692785], [-63.890859, 44.692725], [-63.890851, 44.692535], [-63.890818, 44.692404], [-63.890658, 44.692163], [-63.890458, 44.691603], [-63.890384, 44.691339], [-63.890341, 44.690889], [-63.890642, 44.690116], [-63.891912, 44.687137], [-63.892635, 44.686376], [-63.891162, 44.68326], [-63.891569, 44.68048], [-63.892372, 44.67732], [-63.892722, 44.674775], [-63.893036, 44.673035], [-63.892452, 44.672811], [-63.891525, 44.672638], [-63.891061, 44.672665], [-63.8907, 44.672555], [-63.889955, 44.67223], [-63.889318, 44.67203], [-63.888865, 44.671895], [-63.88861, 44.672233], [-63.864668, 44.663821], [-63.86148, 44.670735], [-63.875126, 44.674258], [-63.873773, 44.676941], [-63.870736, 44.676169], [-63.869825, 44.675895], [-63.869191, 44.675773], [-63.86537, 44.674798], [-63.864889, 44.675734], [-63.864933, 44.675762], [-63.863848, 44.677758], [-63.862622, 44.680315], [-63.862516, 44.680642], [-63.862348, 44.681159], [-63.871925, 44.683018], [-63.871851, 44.684365], [-63.869442, 44.68384], [-63.863925, 44.682685], [-63.862552, 44.682396], [-63.860753, 44.682016], [-63.855248, 44.680929], [-63.855138, 44.681068], [-63.854147, 44.680863]]]}}, {"type": "Feature", "properties": {"name": "Indigo Shores"}, "geometry": {"type": "Polygon", "coordinates": [[[-63.731699, 44.775047], [-63.733346, 44.775146], [-63.73404, 44.775266], [-63.734858, 44.776032], [-63.735229, 44.776049], [-63.736104, 44.776023], [-63.736555, 44.775818], [-63.73714, 44.775207], [-63.737559, 44.77491], [-63.737858, 44.774765], [-63.738218, 44.774679], [-63.738514, 44.774765], [-63.738859, 44.774963], [-63.739648, 44.775092], [-63.740709, 44.774927], [-63.743324, 44.774302], [-63.745801, 44.773698], [-63.7476, 44.774], [-63.7506, 44.7751], [-63.7577, 44.7791], [-63.7602, 44.7803], [-63.7631, 44.7817], [-63.7655, 44.783], [-63.7669, 44.7841], [-63.7676, 44.7844], [-63.7682, 44.7849], [-63.7686, 44.785], [-63.7703, 44.7856], [-63.7708, 44.7855], [-63.7721, 44.7846], [-63.7731, 44.7845], [-63.7735, 44.7845], [-63.7754, 44.7849], [-63.7753, 44.7853], [-63.7749, 44.7862], [-63.7749, 44.7866], [-63.775, 44.7872], [-63.7728, 44.79], [-63.773, 44.7908], [-63.7752, 44.7927], [-63.776003, 44.793503], [-63.775785, 44.793747], [-63.775703, 44.793846], [-63.775618, 44.793948], [-63.774437, 44.795362], [-63.774426, 44.795376], [-63.770554, 44.800015], [-63.770551, 44.800019], [-63.770341, 44.800271], [-63.769413, 44.801364], [-63.766558, 44.804714], [-63.766551, 44.804722], [-63.764364, 44.807287], [-63.764136, 44.807554], [-63.763903, 44.807828], [-63.759324, 44.804642], [-63.759314, 44.804635], [-63.756177, 44.802453], [-63.755833, 44.802214], [-63.755706, 44.802125], [-63.755688, 44.80213], [-63.755656, 44.802144], [-63.755631, 44.802154], [-63.755602, 44.802142], [-63.755587, 44.802131], [-63.755552, 44.802107], [-63.755536, 44.802095], [-63.755521, 44.802079], [-63.755517, 44.802074], [-63.755513, 44.802067], [-63.755503, 44.802047], [-63.755492, 44.802013], [-63.755489, 44.802004], [-63.755474, 44.80199], [-63.755447, 44.80197], [-63.75542, 44.80195], [-63.75538, 44.801915], [-63.755358, 44.801902], [-63.755347, 44.801896], [-63.755322, 44.801887], [-63.755298, 44.801881], [-63.755279, 44.801877], [-63.755259, 44.801877], [-63.755218, 44.801878], [-63.755201, 44.801883], [-63.755183, 44.801892], [-63.755158, 44.801902], [-63.755149, 44.801899], [-63.755138, 44.801895], [-63.755122, 44.801887], [-63.755063, 44.801858], [-63.755033, 44.801841], [-63.754952, 44.801783], [-63.754929, 44.801764], [-63.754898, 44.80174], [-63.754826, 44.801693], [-63.754786, 44.801664], [-63.754745, 44.801641], [-63.754717, 44.801624], [-63.754692, 44.801606], [-63.754674, 44.801594], [-63.754622, 44.801558], [-63.754588, 44.801537], [-63.754554, 44.801517], [-63.754536, 44.801504], [-63.75444, 44.801438], [-63.754408, 44.801418], [-63.754374, 44.801399], [-63.754349, 44.801382], [-63.754276, 44.801319], [-63.754249, 44.801295], [-63.75419, 44.801256], [-63.754167, 44.801243], [-63.754127, 44.801221], [-63.754041, 44.801167], [-63.753992, 44.801132], [-63.753979, 44.80112], [-63.753962, 44.8011], [-63.753946, 44.801083], [-63.753937, 44.801074], [-63.753922, 44.801062], [-63.753911, 44.801054], [-63.753884, 44.801041], [-63.753853, 44.80103], [-63.753794, 44.800989], [-63.753748, 44.800956], [-63.753677, 44.800919], [-63.753623, 44.800878], [-63.753607, 44.800859], [-63.753586, 44.800838], [-63.753552, 44.800816], [-63.753545, 44.800812], [-63.753521, 44.8008], [-63.753477, 44.800766], [-63.753447, 44.800737], [-63.753421, 44.800711], [-63.753396, 44.80069], [-63.753386, 44.800684], [-63.753364, 44.800669], [-63.753332, 44.80065], [-63.753306, 44.800634], [-63.753288, 44.800612], [-63.753268, 44.800557], [-63.7532, 44.800504], [-63.753124, 44.800398], [-63.753117, 44.800383], [-63.753067, 44.800385], [-63.752841, 44.800311], [-63.752727, 44.800283], [-63.752664, 44.800265], [-63.752652, 44.800265], [-63.752538, 44.800237], [-63.751173, 44.798952], [-63.742622, 44.791856], [-63.741077, 44.790638], [-63.739886, 44.789534], [-63.733492, 44.785658], [-63.732601, 44.785247], [-63.732151, 44.784432], [-63.728385, 44.781089], [-63.731699, 44.775047]]]}}, {"type": "Feature", "properties": {"name": "Wallace Hill 14A"}, "geometry": {"type": "Polygon", "coordinates": [[[-63.794354, 44.735596], [-63.796228, 44.735386], [-63.795822, 44.734658], [-63.796817, 44.734357], [-63.797062, 44.734716], [-63.797199, 44.735279], [-63.79791, 44.735194], [-63.799559, 44.734983], [-63.799185, 44.733572], [-63.798478, 44.731511], [-63.796695, 44.731446], [-63.794399, 44.731453], [-63.792408, 44.731353], [-63.793048, 44.733389], [-63.794281, 44.73547], [-63.794354, 44.735596]]]}}, {"type": "Feature", "properties": {"name": "Wallace Hill 14A"}, "geometry": {"type": "Polygon", "coordinates": [[[-63.799135, 44.735314], [-63.79824, 44.736011], [-63.797951, 44.736324], [-63.797565, 44.73691], [-63.796363, 44.737154], [-63.794732, 44.736255], [-63.794491, 44.735836], [-63.795689, 44.735706], [-63.797691, 44.735494], [-63.799135, 44.735314]]]}}]}